{
    "rows": [
        {
            "osm_id": 4139163083,
            "poi_type": "amenity",
            "poi_subtype": "restaurant",
            "lat": 39.2171571,
            "lon": 9.1182209,
            "name": "Royal Trattoria Toscana",
            "tags": {
                "cuisine": "italian"
            }
        },
        {
            "osm_id": 5282843249,
            "poi_type": "amenity",
            "poi_subtype": "restaurant",
            "lat": 39.2186136,
            "lon": 9.1090706,
            "name": "140gr",
            "tags": {}
        },
        {
            "osm_id": 6833995719,
            "poi_type": "amenity",
            "poi_subtype": "restaurant",
            "lat": 39.2713827,
            "lon": 9.0492794,
            "name": "Alta Quota",
            "tags": {
                "phone": "320 450 5450",
                "cuisine": "pizza"
            }
        },
        {
            "osm_id": 2739028654,
            "poi_type": "amenity",
            "poi_subtype": "restaurant",
            "lat": 39.2284978,
            "lon": 9.1280083,
            "name": "Angolo Giusti",
            "tags": {
                "cuisine": "pizza,_italian,_bisteccheria",
                "addr:country": "IT",
                "addr:postcode": "09131",
                "addr:city": "Cagliari",
                "addr:street": "Via Baldassarre Castiglione"
            }
        },
        {
            "osm_id": 7057675385,
            "poi_type": "amenity",
            "poi_subtype": "restaurant",
            "lat": 39.2147176,
            "lon": 9.1124054,
            "name": "Antica Cagliari",
            "tags": {}
        },
        {
            "osm_id": 3026224484,
            "poi_type": "amenity",
            "poi_subtype": "restaurant",
            "lat": 39.2157331,
            "lon": 9.1170204,
            "name": "Antico Caffe dal 1855",
            "tags": {
                "cuisine": "regional",
                "addr:city": "Cagliari",
                "addr:postcode": "09124",
                "contact:website": "http://www.anticocaffe1855.it/",
                "toilets:wheelchair": "no",
                "wheelchair": "no",
                "addr:street": "Piazza Costituzione"
            }
        },
        {
            "osm_id": 1583748391,
            "poi_type": "amenity",
            "poi_subtype": "restaurant",
            "lat": 39.241458,
            "lon": 9.1775094,
            "name": "Ark\u00e9",
            "tags": {
                "wheelchair": "yes"
            }
        },
        {
            "osm_id": 6516336834,
            "poi_type": "amenity",
            "poi_subtype": "restaurant",
            "lat": 39.2683212,
            "lon": 9.0475921,
            "name": "Art Pizza",
            "tags": {
                "phone": "366 110 3116",
                "addr:street": "Via Sulcitana",
                "addr:postcode": "09030",
                "addr:city": "Elmas",
                "cuisine": "pizza"
            }
        },
        {
            "osm_id": 4748782323,
            "poi_type": "amenity",
            "poi_subtype": "restaurant",
            "lat": 39.21515,
            "lon": 9.113995,
            "name": "Barceloneta",
            "tags": {
                "wheelchair": "no",
                "toilets:wheelchair": "no"
            }
        },
        {
            "osm_id": 2524181594,
            "poi_type": "amenity",
            "poi_subtype": "restaurant",
            "lat": 39.2173643,
            "lon": 9.1108808,
            "name": "Bataclan",
            "tags": {
                "phone": "+39 070 658513",
                "addr:street": "Via Sassari",
                "addr:city": "Cagliari",
                "cuisine": "italian"
            }
        },
        {
            "osm_id": 4228977913,
            "poi_type": "amenity",
            "poi_subtype": "restaurant",
            "lat": 39.2151342,
            "lon": 9.1266185,
            "name": "Bent\u014d",
            "tags": {
                "cuisine": "japanese",
                "addr:street": "Via Enrico Gianturco",
                "addr:city": "Cagliari",
                "takeaway": "yes"
            }
        },
        {
            "osm_id": 2527947576,
            "poi_type": "amenity",
            "poi_subtype": "restaurant",
            "lat": 39.2174819,
            "lon": 9.1078174,
            "name": "Bierkeller",
            "tags": {
                "phone": "+39 070 666980",
                "addr:street": "Viale Trieste",
                "addr:city": "Cagliari",
                "cuisine": "german"
            }
        },
        {
            "osm_id": 2433601604,
            "poi_type": "amenity",
            "poi_subtype": "restaurant",
            "lat": 39.2196064,
            "lon": 9.1226777,
            "name": "Bliss",
            "tags": {
                "cuisine": "italian",
                "addr:postcode": "09128",
                "addr:city": "Cagliari",
                "addr:street": "Via Pasquale Paoli"
            }
        },
        {
            "osm_id": 2002901576,
            "poi_type": "amenity",
            "poi_subtype": "restaurant",
            "lat": 39.2158976,
            "lon": 9.1195539,
            "name": "Bobocono",
            "tags": {
                "cuisine": "ice_cream"
            }
        },
        {
            "osm_id": 956130315,
            "poi_type": "amenity",
            "poi_subtype": "restaurant",
            "lat": 39.2166775,
            "lon": 9.1166487,
            "name": "Cafe Degli Spiriti",
            "tags": {
                "phone": "+39 070.311.03.73",
                "price": "\u20ac7 drinks",
                "addr:street": "Bastione di Saint Remy",
                "addr:city": "Cagliari",
                "cuisine": "regional"
            }
        },
        {
            "osm_id": 4059513673,
            "poi_type": "amenity",
            "poi_subtype": "restaurant",
            "lat": 39.2127043,
            "lon": 9.1153613,
            "name": "Civico 8",
            "tags": {
                "addr:street": "Viale Regina Margherita"
            }
        },
        {
            "osm_id": 3093280827,
            "poi_type": "amenity",
            "poi_subtype": "restaurant",
            "lat": 39.2174268,
            "lon": 9.1129195,
            "name": "Corso Dodici",
            "tags": {}
        },
        {
            "osm_id": 4438870383,
            "poi_type": "amenity",
            "poi_subtype": "restaurant",
            "lat": 39.2174958,
            "lon": 9.1127907,
            "name": "Creperie Black Sun 2",
            "tags": {}
        },
        {
            "osm_id": 4229075825,
            "poi_type": "amenity",
            "poi_subtype": "restaurant",
            "lat": 39.2134223,
            "lon": 9.1159145,
            "name": "Dal Corsaro",
            "tags": {
                "cuisine": "italian",
                "contact:facebook": "https://www.facebook.com/Ristorante-Dal-Corsaro-297630203614168/",
                "addr:city": "Cagliari",
                "contact:email": "dalcorsaro@tiscali.it",
                "opening_hours": "Tu-Su 19:45-23:15",
                "contact:website": "https://www.stefanodeidda.it",
                "contact:phone": "070 664 318",
                "payment:mastercard": "yes",
                "payment:visa": "yes",
                "payment:cash": "yes",
                "payment:american_express": "yes",
                "start_date": "2011-12-27",
                "addr:street": "Viale Regina Margherita"
            }
        },
        {
            "osm_id": 4471076191,
            "poi_type": "amenity",
            "poi_subtype": "restaurant",
            "lat": 39.241477,
            "lon": 9.1866338,
            "name": "Dal Corsaro",
            "tags": {
                "website": "https://www.stefanodeidda.it/",
                "cuisine": "italian",
                "addr:city": "Quartu Sant'Elena",
                "addr:postcode": "09124",
                "phone": "+39070664318",
                "opening_hours": "Tu-Su 12:00-15:00, 19:00-23:00",
                "operator": "Stefano Deidda",
                "addr:street": "Via Regina Margherita"
            }
        },
        {
            "osm_id": 3805643379,
            "poi_type": "amenity",
            "poi_subtype": "restaurant",
            "lat": 39.2195938,
            "lon": 9.1118686,
            "name": "Da Massimo",
            "tags": {
                "cuisine": "pizza",
                "addr:city": "Cagliari",
                "delivery": "yes",
                "phone": "+39 070 3111130",
                "takeaway": "yes",
                "addr:street": "Via Ospedale"
            }
        },
        {
            "osm_id": 281433297,
            "poi_type": "amenity",
            "poi_subtype": "restaurant",
            "lat": 39.265535,
            "lon": 9.0485766,
            "name": "Da Pasta e Emy",
            "tags": {
                "cuisine": "pizzaburgerregional",
                "addr:postcode": "09030",
                "addr:city": "Elmas",
                "addr:street": "Via Flumendosa"
            }
        },
        {
            "osm_id": 2444677125,
            "poi_type": "amenity",
            "poi_subtype": "restaurant",
            "lat": 39.2209146,
            "lon": 9.1128879,
            "name": "Dar Burino",
            "tags": {
                "cuisine": "pizza",
                "microbrewery": "no",
                "opening_hours": "24/7"
            }
        },
        {
            "osm_id": 2744533404,
            "poi_type": "amenity",
            "poi_subtype": "restaurant",
            "lat": 39.2178081,
            "lon": 9.1139756,
            "name": "Downtown",
            "tags": {
                "cuisine": "regionalpizza",
                "addr:city": "Cagliari",
                "addr:street": "Piazza Yenne"
            }
        },
        {
            "osm_id": 3319195229,
            "poi_type": "amenity",
            "poi_subtype": "restaurant",
            "lat": 39.2180414,
            "lon": 9.1191723,
            "name": "Dr. Ampex",
            "tags": {
                "addr:street": "Via San Giacomo",
                "addr:city": "Cagliari",
                "source_1": "Note 68509"
            }
        },
        {
            "osm_id": 3785787442,
            "poi_type": "amenity",
            "poi_subtype": "restaurant",
            "lat": 39.2154674,
            "lon": 9.1129311,
            "name": "Dulcis Pasticceria",
            "tags": {
                "cuisine": "pizza",
                "wheelchair": "no"
            }
        },
        {
            "osm_id": 2524303838,
            "poi_type": "amenity",
            "poi_subtype": "restaurant",
            "lat": 39.2169393,
            "lon": 9.1119703,
            "name": "El Manar",
            "tags": {
                "cuisine": "kebab",
                "addr:city": "Cagliari",
                "addr:street": "Via Giovanni Maria Angioy"
            }
        },
        {
            "osm_id": 4229648487,
            "poi_type": "amenity",
            "poi_subtype": "restaurant",
            "lat": 39.2139132,
            "lon": 9.1135031,
            "name": "Ethnica",
            "tags": {
                "smoking": "outside",
                "addr:street": "Via dei Mille",
                "addr:city": "Cagliari",
                "takeaway": "yes"
            }
        },
        {
            "osm_id": 4425376697,
            "poi_type": "amenity",
            "poi_subtype": "restaurant",
            "lat": 39.2511587,
            "lon": 9.1074418,
            "name": "Evelyn Pizza",
            "tags": {
                "phone": "+39 070 531350",
                "addr:street": "Via Giuseppe Peretti",
                "restaurant:type:it": "pizzeria",
                "opening_hours": "Mo-Fr 12:00-15:00,19:00-24:00 Sa,Su 19:00-24:00",
                "cuisine": "pizza"
            }
        },
        {
            "osm_id": 5917544586,
            "poi_type": "amenity",
            "poi_subtype": "restaurant",
            "lat": 39.218218,
            "lon": 9.1112356,
            "name": "Fan\u00e0",
            "tags": {
                "website": "http://www.ilfana.it",
                "phone": "070 680326",
                "addr:street": "Corso Vittorio Emanuele II",
                "cuisine": "seafoodfishlocal"
            }
        },
        {
            "osm_id": 3058874025,
            "poi_type": "amenity",
            "poi_subtype": "restaurant",
            "lat": 39.2168735,
            "lon": 9.1103329,
            "name": "Fif\u00f2",
            "tags": {
                "website": "http://www.fifofish.it",
                "cuisine": "fish",
                "capacity": "25",
                "addr:city": "Cagliari",
                "addr:postcode": "09124",
                "wheelchair": "yes",
                "phone": "+39 070 665649",
                "addr:street": "Via Sassari"
            }
        },
        {
            "osm_id": 5234820341,
            "poi_type": "amenity",
            "poi_subtype": "restaurant",
            "lat": 39.2134329,
            "lon": 9.1158431,
            "name": "Fork",
            "tags": {
                "contact:facebook": "https://www.facebook.com/pg/Fork-286355898141567/",
                "opening_hours": "Tu-Su 12:30-15:00,20:00-23:00",
                "contact:website": "https://www.stefanodeidda.it",
                "contact:phone": "+39 070 664 318",
                "payment:mastercard": "yes",
                "payment:visa": "yes",
                "payment:cash": "yes",
                "payment:american_express": "yes"
            }
        },
        {
            "osm_id": 4229085853,
            "poi_type": "amenity",
            "poi_subtype": "restaurant",
            "lat": 39.2127472,
            "lon": 9.1160355,
            "name": "Fritto Mania",
            "tags": {
                "phone": "+39 338 8373158",
                "opening_hours": "12:00-15:00, 19:00-23:00",
                "addr:city": "Cagliari",
                "addr:street": "Viale Regina Margherita"
            }
        },
        {
            "osm_id": 5133321440,
            "poi_type": "amenity",
            "poi_subtype": "restaurant",
            "lat": 39.2109474,
            "lon": 9.1181493,
            "name": "Galaia City",
            "tags": {
                "cuisine": "fish",
                "wheelchair": "yes",
                "addr:street": "Viale Armando Diaz",
                "addr:city": "Cagliari",
                "takeaway": "no"
            }
        },
        {
            "osm_id": 4229659695,
            "poi_type": "amenity",
            "poi_subtype": "restaurant",
            "lat": 39.2196882,
            "lon": 9.1042108,
            "name": "Gattarancio",
            "tags": {
                "cuisine": "Steak_house,_burger,_beer_shop",
                "addr:city": "Cagliari",
                "addr:street": "Viale Trieste"
            }
        },
        {
            "osm_id": 1996967388,
            "poi_type": "amenity",
            "poi_subtype": "restaurant",
            "lat": 39.2082071,
            "lon": 9.1363423,
            "name": "Gelateria \"Ice Mu\"",
            "tags": {
                "cuisine": "ice_cream"
            }
        },
        {
            "osm_id": 2849970389,
            "poi_type": "amenity",
            "poi_subtype": "restaurant",
            "lat": 39.2190687,
            "lon": 9.1096127,
            "name": "Gintilla",
            "tags": {
                "website": "www.gintilla.com",
                "cuisine": "italian",
                "addr:city": "Cagliari",
                "addr:postcode": "09123",
                "diet": "vegetarian",
                "phone": "+9 070 680665",
                "addr:street": "Corso Vittorio Emanuele II"
            }
        },
        {
            "osm_id": 4229089478,
            "poi_type": "amenity",
            "poi_subtype": "restaurant",
            "lat": 39.2261328,
            "lon": 9.1250991,
            "name": "Ginza",
            "tags": {
                "cuisine": "japanese",
                "wheelchair": "no",
                "addr:street": "Via Dante Alighieri",
                "addr:city": "Cagliari",
                "takeaway": "yes"
            }
        },
        {
            "osm_id": 5861146431,
            "poi_type": "amenity",
            "poi_subtype": "restaurant",
            "lat": 39.2011501,
            "lon": 9.1422367,
            "name": "Good",
            "tags": {
                "cuisine": "PinsaGelatiPasticceria",
                "outdoor_seating": "yes"
            }
        },
        {
            "osm_id": 2001262808,
            "poi_type": "amenity",
            "poi_subtype": "restaurant",
            "lat": 39.2213594,
            "lon": 9.1362552,
            "name": "Il bamb\u00f9",
            "tags": {
                "cuisine": "pizza"
            }
        },
        {
            "osm_id": 4229116506,
            "poi_type": "amenity",
            "poi_subtype": "restaurant",
            "lat": 39.2158513,
            "lon": 9.117,
            "name": "IL Bastione",
            "tags": {
                "cuisine": "italian",
                "addr:city": "Cagliari",
                "opening_hours": "Mo-Su 07:00-23:00",
                "phone": "070660372",
                "name:ru": "IL Bastione",
                "internet_access": "wlan",
                "addr:street": "Viale Regina Elena"
            }
        },
        {
            "osm_id": 6949742445,
            "poi_type": "amenity",
            "poi_subtype": "restaurant",
            "lat": 39.2183339,
            "lon": 9.1125262,
            "name": "Il Brigantino",
            "tags": {}
        },
        {
            "osm_id": 4748819922,
            "poi_type": "amenity",
            "poi_subtype": "restaurant",
            "lat": 39.2155583,
            "lon": 9.11307,
            "name": "Il bronzetto",
            "tags": {
                "wheelchair": "no"
            }
        },
        {
            "osm_id": 4479824185,
            "poi_type": "amenity",
            "poi_subtype": "restaurant",
            "lat": 39.2708042,
            "lon": 9.0503497,
            "name": "Il Dragoncello 2",
            "tags": {
                "cuisine": "pizza",
                "addr:postcode": "09030",
                "addr:city": "Elmas",
                "addr:street": "Via del Pino Solitario"
            }
        },
        {
            "osm_id": 3957252683,
            "poi_type": "amenity",
            "poi_subtype": "restaurant",
            "lat": 39.2184136,
            "lon": 9.1197889,
            "name": "Il Fantasma 2",
            "tags": {
                "addr:street": "Via San Domenico"
            }
        },
        {
            "osm_id": 2002906737,
            "poi_type": "amenity",
            "poi_subtype": "restaurant",
            "lat": 39.282036,
            "lon": 9.0731183,
            "name": "Il Ghiottone",
            "tags": {
                "cuisine": "italian"
            }
        },
        {
            "osm_id": 5243063744,
            "poi_type": "amenity",
            "poi_subtype": "restaurant",
            "lat": 39.2147933,
            "lon": 9.1133892,
            "name": "Il Malandrino",
            "tags": {
                "cuisine": "regionalfish",
                "wheelchair": "limited"
            }
        },
        {
            "osm_id": 277187273,
            "poi_type": "amenity",
            "poi_subtype": "restaurant",
            "lat": 39.223882,
            "lon": 9.1247133,
            "name": "Il panino,  la vecchia Kasbah",
            "tags": {
                "height": "33"
            }
        },
        {
            "osm_id": 4229452491,
            "poi_type": "amenity",
            "poi_subtype": "restaurant",
            "lat": 39.2159635,
            "lon": 9.1133814,
            "name": "Impasto",
            "tags": {
                "cuisine": "regional,_pizza,_italian",
                "wheelchair": "no",
                "addr:city": "Cagliari",
                "addr:street": "Via Savoia"
            }
        },
        {
            "osm_id": 3025020909,
            "poi_type": "amenity",
            "poi_subtype": "restaurant",
            "lat": 39.2174132,
            "lon": 9.1137478,
            "name": "Incognito",
            "tags": {}
        },
        {
            "osm_id": 4121664990,
            "poi_type": "amenity",
            "poi_subtype": "restaurant",
            "lat": 39.1979447,
            "lon": 9.1595563,
            "name": "Insomnia Caf\u00e8",
            "tags": {
                "cuisine": "mexican",
                "wheelchair": "yes",
                "addr:city": "Casteddu/Cagliari",
                "addr:street": "Viale Poetto"
            }
        },
        {
            "osm_id": 5210688823,
            "poi_type": "amenity",
            "poi_subtype": "restaurant",
            "lat": 39.2158344,
            "lon": 9.1171876,
            "name": "I Sushi",
            "tags": {
                "cuisine": "chinesejapanesethaisushi",
                "internet_access": "wlan"
            }
        },
        {
            "osm_id": 4036528315,
            "poi_type": "amenity",
            "poi_subtype": "restaurant",
            "lat": 39.2198929,
            "lon": 9.1058227,
            "name": "Jazzino",
            "tags": {
                "cuisine": "italian",
                "addr:street": "Via Carloforte",
                "takeaway": "no",
                "addr:city": "Cagliari",
                "smoking": "outside"
            }
        },
        {
            "osm_id": 3959616709,
            "poi_type": "amenity",
            "poi_subtype": "restaurant",
            "lat": 39.2165681,
            "lon": 9.1117677,
            "name": "La Contra",
            "tags": {
                "addr:street": "Via Giovanni Maria Angioy"
            }
        },
        {
            "osm_id": 2455161204,
            "poi_type": "amenity",
            "poi_subtype": "restaurant",
            "lat": 39.2185383,
            "lon": 9.1135289,
            "name": "La Kasbah",
            "tags": {
                "cuisine": "kebab",
                "addr:city": "Cagliari",
                "addr:street": "Via Santa Margherita"
            }
        },
        {
            "osm_id": 4229656555,
            "poi_type": "amenity",
            "poi_subtype": "restaurant",
            "lat": 39.2230192,
            "lon": 9.1048987,
            "name": "La mola sarda",
            "tags": {
                "addr:city": "Cagliari",
                "addr:street": "Viale Trento"
            }
        },
        {
            "osm_id": 5596183739,
            "poi_type": "amenity",
            "poi_subtype": "restaurant",
            "lat": 39.252763,
            "lon": 9.1508,
            "name": "L'angolo della pizza",
            "tags": {}
        },
        {
            "osm_id": 4229079624,
            "poi_type": "amenity",
            "poi_subtype": "restaurant",
            "lat": 39.2132026,
            "lon": 9.1157496,
            "name": "La Pirata",
            "tags": {
                "cuisine": "italianfish",
                "contact:facebook": "https://www.facebook.com/La-Pirata-829234357204025/",
                "addr:city": "Cagliari",
                "contact:email": "lapiratacagliari@gmail.com",
                "contact:phone": "+39 070 658474",
                "addr:street": "Viale Regina Margherita"
            }
        },
        {
            "osm_id": 867589444,
            "poi_type": "amenity",
            "poi_subtype": "restaurant",
            "lat": 39.244706,
            "lon": 9.1630401,
            "name": "La recoleta",
            "tags": {}
        },
        {
            "osm_id": 1406230644,
            "poi_type": "amenity",
            "poi_subtype": "restaurant",
            "lat": 39.2245315,
            "lon": 9.2003385,
            "name": "Le bont\u00e0 di lilliccu",
            "tags": {
                "cuisine": "italian"
            }
        },
        {
            "osm_id": 4107055950,
            "poi_type": "amenity",
            "poi_subtype": "restaurant",
            "lat": 39.2555382,
            "lon": 9.1656567,
            "name": "L'elfo",
            "tags": {
                "cuisine": "pizza",
                "addr:city": "Selargius",
                "addr:postcode": "09047",
                "phone": "+39 070 8607049",
                "takeaway": "yes",
                "addr:street": "Via Milazzo"
            }
        },
        {
            "osm_id": 4229080111,
            "poi_type": "amenity",
            "poi_subtype": "restaurant",
            "lat": 39.2204155,
            "lon": 9.11892,
            "name": "Le Notre R\u00eave",
            "tags": {
                "addr:street": "Via San Giovanni",
                "name:it": "Le Notre R\u00eave",
                "addr:city": "Cagliari"
            }
        },
        {
            "osm_id": 3759509045,
            "poi_type": "amenity",
            "poi_subtype": "restaurant",
            "lat": 39.2165798,
            "lon": 9.1176738,
            "name": "Villanova Caf\u00e9 Bistrot",
            "tags": {
                "addr:country": "IT",
                "addr:city": "Cagliari",
                "addr:street": "Via Vincenzo Sulis"
            }
        },
        {
            "osm_id": 5810352079,
            "poi_type": "amenity",
            "poi_subtype": "restaurant",
            "lat": 39.2186994,
            "lon": 9.1150683,
            "name": "Libarium Nostrum",
            "tags": {
                "website": "https://m.facebook.com/Libarium-Nostrum-1593135687567911/?rf=316786478457232",
                "opening_hours": "Mo-Su 07:30-02:00",
                "addr:street": "Via Santa Croce"
            }
        },
        {
            "osm_id": 4749315027,
            "poi_type": "amenity",
            "poi_subtype": "restaurant",
            "lat": 39.2198659,
            "lon": 9.1159149,
            "name": "L'imperfetto",
            "tags": {
                "wheelchair": "yes"
            }
        },
        {
            "osm_id": 2726663881,
            "poi_type": "amenity",
            "poi_subtype": "restaurant",
            "lat": 39.2148012,
            "lon": 9.1128597,
            "name": "L'Oca Bianca",
            "tags": {
                "website": "www.locabiancacagliari.it",
                "cuisine": "italianpizza",
                "wheelchair": "no",
                "addr:city": "Cagliari",
                "addr:street": "Via Napoli"
            }
        },
        {
            "osm_id": 1388397471,
            "poi_type": "amenity",
            "poi_subtype": "restaurant",
            "lat": 39.2174839,
            "lon": 9.1112514,
            "name": "Locanda Caddeo",
            "tags": {
                "website": "http://www.locandacaddeo.it/",
                "addr:city": "Cagliari",
                "addr:street": "Via Sassari"
            }
        },
        {
            "osm_id": 4229668718,
            "poi_type": "amenity",
            "poi_subtype": "restaurant",
            "lat": 39.2243018,
            "lon": 9.1038239,
            "name": "Locanda dei buoni e cattivi",
            "tags": {
                "wheelchair": "yes",
                "addr:city": "Cagliari",
                "addr:street": "Via Vittorio Veneto"
            }
        },
        {
            "osm_id": 4100055510,
            "poi_type": "amenity",
            "poi_subtype": "restaurant",
            "lat": 39.218404,
            "lon": 9.1215207,
            "name": "LOLLove Pizza",
            "tags": {
                "cuisine": "pizza",
                "addr:street": "Via Sidney Sonnino"
            }
        },
        {
            "osm_id": 2508491611,
            "poi_type": "amenity",
            "poi_subtype": "restaurant",
            "lat": 39.2170584,
            "lon": 9.1107885,
            "name": "Lo Zodiaco",
            "tags": {
                "website": "http://www.ristorantepizzerialozodiaco.com",
                "cuisine": "regionalpizza",
                "addr:city": "Cagliari",
                "wheelchair:description": "Impossibile entrare,gradini da ogni parte,persino per arrivare nella sala esterna.",
                "wheelchair": "no",
                "phone": "+39 070 670333",
                "addr:street": "Via Sassari"
            }
        },
        {
            "osm_id": 4229032904,
            "poi_type": "amenity",
            "poi_subtype": "restaurant",
            "lat": 39.2130102,
            "lon": 9.1156008,
            "name": "Luigi Pomata",
            "tags": {
                "addr:city": "Cagliari",
                "contact:email": "info@luigipomata.com",
                "opening_hours": "Mo-Sa 13:00-15:00,20:00-23:15",
                "contact:website": "http://www.luigipomata.com",
                "contact:phone": "+39 070 672 058",
                "addr:street": "Viale Regina Margherita"
            }
        },
        {
            "osm_id": 2727000790,
            "poi_type": "amenity",
            "poi_subtype": "restaurant",
            "lat": 39.2132159,
            "lon": 9.1152047,
            "name": "Luigi Pomata Bistrot",
            "tags": {
                "website": "www.luigipomata.com",
                "cuisine": "italian",
                "addr:city": "Cagliari",
                "addr:street": "Via Vittorio Porcile"
            }
        },
        {
            "osm_id": 2338536579,
            "poi_type": "amenity",
            "poi_subtype": "restaurant",
            "lat": 39.2158548,
            "lon": 9.1137395,
            "name": "Man\u00e0man\u00e0",
            "tags": {
                "phone": "+39 070 651759",
                "wheelchair": "no",
                "internet_access": "wlan",
                "toilets:wheelchair": "no",
                "cuisine": "regional"
            }
        },
        {
            "osm_id": 6342346156,
            "poi_type": "amenity",
            "poi_subtype": "restaurant",
            "lat": 39.2300821,
            "lon": 9.1227837,
            "name": "Manow Ristorante carne & pesce",
            "tags": {
                "addr:postcode": "09131",
                "addr:city": "Cagliari",
                "addr:street": "Via dei Visconti"
            }
        },
        {
            "osm_id": 4471060128,
            "poi_type": "amenity",
            "poi_subtype": "restaurant",
            "lat": 39.2408023,
            "lon": 9.1783929,
            "name": "Margherita",
            "tags": {
                "cuisine": "pizza",
                "contact:facebook": "https://www.facebook.com/Pizza-margherita-Risto-Pub-168783049845155/",
                "addr:city": "Quartu Sant'Elena",
                "addr:postcode": "09045",
                "wheelchair": "yes",
                "opening_hours": "Mo-Fr 00:00-02:00,12:00-15:00,19:00-24:00 Tu 00:00-02:00,12:00-15:00 We 12:00-15:00,19:00-24:00 Sa,Su 00:00-02:00,18:30-24:00",
                "addr:street": "Via Antonio Meucci"
            }
        },
        {
            "osm_id": 2511555786,
            "poi_type": "amenity",
            "poi_subtype": "restaurant",
            "lat": 39.2177587,
            "lon": 9.1112724,
            "name": "MeC Puddu's",
            "tags": {
                "website": "http://www.mecpuddus.it/",
                "cuisine": "regional_sardinian",
                "addr:city": "Cagliari",
                "addr:street": "Via Sassari"
            }
        },
        {
            "osm_id": 4471060130,
            "poi_type": "amenity",
            "poi_subtype": "restaurant",
            "lat": 39.2415647,
            "lon": 9.1852132,
            "name": "Metropizza",
            "tags": {
                "cuisine": "italian",
                "wheelchair": "limited",
                "addr:postcode": "09045",
                "addr:city": "Quartu Sant'Elena",
                "addr:street": "Via Venezia"
            }
        },
        {
            "osm_id": 4028060108,
            "poi_type": "amenity",
            "poi_subtype": "restaurant",
            "lat": 39.2112842,
            "lon": 9.1191428,
            "name": "Mi Asian",
            "tags": {
                "cuisine": "asian",
                "wheelchair": "no",
                "takeaway": "yes"
            }
        },
        {
            "osm_id": 4229665415,
            "poi_type": "amenity",
            "poi_subtype": "restaurant",
            "lat": 39.2187017,
            "lon": 9.115463,
            "name": "Milestone Pizzeria",
            "tags": {
                "cuisine": "pizza",
                "addr:city": "Cagliari",
                "addr:street": "Vico Secondo dei Genovesi"
            }
        },
        {
            "osm_id": 605633201,
            "poi_type": "amenity",
            "poi_subtype": "restaurant",
            "lat": 39.2754095,
            "lon": 9.0753598,
            "name": "Mizar",
            "tags": {
                "addr:street": "ex SS131"
            }
        },
        {
            "osm_id": 4229094999,
            "poi_type": "amenity",
            "poi_subtype": "restaurant",
            "lat": 39.2256354,
            "lon": 9.127685,
            "name": "My Flower",
            "tags": {
                "addr:city": "Cagliari",
                "addr:street": "Via Pietro Cavaro"
            }
        },
        {
            "osm_id": 3959628691,
            "poi_type": "amenity",
            "poi_subtype": "restaurant",
            "lat": 39.2149628,
            "lon": 9.1134612,
            "name": "Namast\u00e8",
            "tags": {
                "wheelchair": "limited",
                "toilets:wheelchair": "no",
                "addr:street": "Via Barcellona"
            }
        },
        {
            "osm_id": 4229592101,
            "poi_type": "amenity",
            "poi_subtype": "restaurant",
            "lat": 39.2153576,
            "lon": 9.1134376,
            "name": "Nasip",
            "tags": {
                "addr:city": "Cagliari",
                "addr:street": "Via Napoli"
            }
        },
        {
            "osm_id": 4326763589,
            "poi_type": "amenity",
            "poi_subtype": "restaurant",
            "lat": 39.2153627,
            "lon": 9.1134124,
            "name": "Nasip",
            "tags": {
                "wheelchair": "no"
            }
        },
        {
            "osm_id": 5810359108,
            "poi_type": "amenity",
            "poi_subtype": "restaurant",
            "lat": 39.215205,
            "lon": 9.1170657,
            "name": "Nerocarbone",
            "tags": {}
        },
        {
            "osm_id": 4228981993,
            "poi_type": "amenity",
            "poi_subtype": "restaurant",
            "lat": 39.2129072,
            "lon": 9.115524,
            "name": "Next Food Lounge",
            "tags": {
                "cuisine": "italian",
                "contact:facebook": "https://www.facebook.com/nextfoodandlounge/",
                "addr:city": "Cagliari",
                "opening_hours": "Mo-Sa 12:00-15:00,16:00-23:00",
                "contact:phone": "+39 070 654 464",
                "payment:mastercard": "yes",
                "payment:visa": "yes",
                "payment:cash": "yes",
                "addr:street": "Viale Regina Margherita"
            }
        },
        {
            "osm_id": 4053992846,
            "poi_type": "amenity",
            "poi_subtype": "restaurant",
            "lat": 39.2119668,
            "lon": 9.1145686,
            "name": "Offshore Lounge",
            "tags": {
                "wheelchair": "yes",
                "outdoor_seating": "yes",
                "seamark:type": "small_craft_facility",
                "seamark:small_craft_facility:category": "restaurant"
            }
        },
        {
            "osm_id": 2468570745,
            "poi_type": "amenity",
            "poi_subtype": "restaurant",
            "lat": 39.2176852,
            "lon": 9.1120395,
            "name": "Old Square",
            "tags": {
                "cuisine": "Irish_Pub",
                "wheelchair": "yes",
                "addr:city": "Cagliari",
                "addr:street": "Corso Vittorio Emanuele II"
            }
        },
        {
            "osm_id": 5995859685,
            "poi_type": "amenity",
            "poi_subtype": "restaurant",
            "lat": 39.2166789,
            "lon": 9.1195112,
            "name": "one time",
            "tags": {}
        },
        {
            "osm_id": 4229024417,
            "poi_type": "amenity",
            "poi_subtype": "restaurant",
            "lat": 39.2184033,
            "lon": 9.1151423,
            "name": "Osteria Su Tzilleri 'e su Doge",
            "tags": {
                "addr:street": "Via Santa Croce",
                "name:it": "Osteria Su Tzilleri 'e su Doge di Claudio Ara",
                "addr:city": "Cagliari"
            }
        },
        {
            "osm_id": 5810359553,
            "poi_type": "amenity",
            "poi_subtype": "restaurant",
            "lat": 39.2152545,
            "lon": 9.1171244,
            "name": "Ottotre",
            "tags": {}
        },
        {
            "osm_id": 4471098297,
            "poi_type": "amenity",
            "poi_subtype": "restaurant",
            "lat": 39.2415733,
            "lon": 9.1834019,
            "name": "Pani e Casu",
            "tags": {
                "addr:postcode": "09045",
                "wheelchair": "limited",
                "addr:city": "Quartu Sant'Elena",
                "addr:street": "Via Eligio Porcu"
            }
        },
        {
            "osm_id": 1996946746,
            "poi_type": "amenity",
            "poi_subtype": "restaurant",
            "lat": 39.208505,
            "lon": 9.1331669,
            "name": "Pepe Rosa",
            "tags": {
                "cuisine": "italian"
            }
        },
        {
            "osm_id": 4273980489,
            "poi_type": "amenity",
            "poi_subtype": "restaurant",
            "lat": 39.219803,
            "lon": 9.112724,
            "name": "PerBacco di Sabrina Silvi",
            "tags": {
                "addr:postcode": "09124",
                "wheelchair": "no",
                "addr:city": "Cagliari",
                "toilets:wheelchair": "no",
                "addr:street": "Via Santa Restituta"
            }
        },
        {
            "osm_id": 2835924880,
            "poi_type": "amenity",
            "poi_subtype": "restaurant",
            "lat": 39.2158423,
            "lon": 9.1208662,
            "name": "Piadine & Co",
            "tags": {
                "cuisine": "regional",
                "wheelchair": "limited",
                "addr:city": "Cagliari",
                "addr:street": "Via Grazia Deledda"
            }
        },
        {
            "osm_id": 3375236371,
            "poi_type": "amenity",
            "poi_subtype": "restaurant",
            "lat": 39.2184481,
            "lon": 9.1124557,
            "name": "Picanhito",
            "tags": {
                "cuisine": "brazilian",
                "addr:city": "Cagliari",
                "addr:postcode": "09124",
                "delivery": "no",
                "takeaway": "no",
                "smoking": "outside",
                "addr:street": "Via Domenico Alberto Azuni"
            }
        },
        {
            "osm_id": 6342346154,
            "poi_type": "amenity",
            "poi_subtype": "restaurant",
            "lat": 39.2296855,
            "lon": 9.122765,
            "name": "Pilade Bar pizzeria pasticceria",
            "tags": {
                "cuisine": "pizzapasticceria",
                "addr:postcode": "09131",
                "addr:city": "Cagliari",
                "addr:street": "Via dei Visconti"
            }
        },
        {
            "osm_id": 2512687184,
            "poi_type": "amenity",
            "poi_subtype": "restaurant",
            "lat": 39.2176286,
            "lon": 9.1106958,
            "name": "Wallabys",
            "tags": {
                "cuisine": "Australian",
                "addr:city": "Cagliari",
                "addr:street": "Via Goffredo Mameli"
            }
        },
        {
            "osm_id": 4228905898,
            "poi_type": "amenity",
            "poi_subtype": "restaurant",
            "lat": 39.2127197,
            "lon": 9.1153848,
            "name": "PITH Smokehouse",
            "tags": {
                "cuisine": "barbecue",
                "contact:facebook": "https://www.facebook.com/PITHSmokehouse/",
                "addr:city": "Cagliari",
                "opening_hours": "Mo-Su 12:00-15:00,19:00-23:00 Fr,Sa 12:00-15:00,19:00-23:30",
                "contact:phone": "070 640 7654",
                "addr:street": "Viale Regina Margherita"
            }
        },
        {
            "osm_id": 2849936763,
            "poi_type": "amenity",
            "poi_subtype": "restaurant",
            "lat": 39.2268064,
            "lon": 9.1332023,
            "name": "Pizzagabria",
            "tags": {
                "phone": "+39 070 3110608",
                "addr:street": "Via Zagabria",
                "addr:city": "Cagliari",
                "cuisine": "pizza"
            }
        },
        {
            "osm_id": 5751247581,
            "poi_type": "amenity",
            "poi_subtype": "restaurant",
            "lat": 39.2676759,
            "lon": 9.0588329,
            "name": "Pizzeria",
            "tags": {
                "cuisine": "pizza"
            }
        },
        {
            "osm_id": 3759515457,
            "poi_type": "amenity",
            "poi_subtype": "restaurant",
            "lat": 39.2173256,
            "lon": 9.118537,
            "name": "Pizzeria",
            "tags": {
                "cuisine": "pizza"
            }
        },
        {
            "osm_id": 4229127914,
            "poi_type": "amenity",
            "poi_subtype": "restaurant",
            "lat": 39.2194013,
            "lon": 9.1118659,
            "name": "Pizzeria Cerere",
            "tags": {
                "addr:city": "Cagliari",
                "addr:street": "Via Ospedale"
            }
        },
        {
            "osm_id": 1996965750,
            "poi_type": "amenity",
            "poi_subtype": "restaurant",
            "lat": 39.2322616,
            "lon": 9.1283922,
            "name": "Pizzeria \"Chiaro di luna\"",
            "tags": {
                "cuisine": "pizza"
            }
        },
        {
            "osm_id": 4229101106,
            "poi_type": "amenity",
            "poi_subtype": "restaurant",
            "lat": 39.240714,
            "lon": 9.1029905,
            "name": "Pizzeria Evolution 2",
            "tags": {
                "cuisine": "pizza",
                "addr:city": "Cagliari",
                "addr:street": "Via Mandrolisai"
            }
        },
        {
            "osm_id": 595424157,
            "poi_type": "amenity",
            "poi_subtype": "restaurant",
            "lat": 39.2695876,
            "lon": 9.0442368,
            "name": "Pizzeria Giorgione",
            "tags": {
                "cuisine": "italian_pizza",
                "addr:city": "Elmas",
                "addr:postcode": "09030",
                "outdoor_seating": "no",
                "delivery": "yes",
                "phone": "070 216333",
                "takeaway": "yes",
                "addr:street": "Via Sulcitana"
            }
        },
        {
            "osm_id": 4440523604,
            "poi_type": "amenity",
            "poi_subtype": "restaurant",
            "lat": 39.2224443,
            "lon": 9.1056023,
            "name": "Pizzeria Il Teatro",
            "tags": {
                "cuisine": "pizza"
            }
        },
        {
            "osm_id": 860469707,
            "poi_type": "amenity",
            "poi_subtype": "restaurant",
            "lat": 39.2531202,
            "lon": 9.1604623,
            "name": "Pizzeria mai dire italia",
            "tags": {
                "cuisine": "pizza"
            }
        },
        {
            "osm_id": 3232234257,
            "poi_type": "amenity",
            "poi_subtype": "restaurant",
            "lat": 39.2164072,
            "lon": 9.1116009,
            "name": "Pizzeria Pizzen\u00f2",
            "tags": {
                "cuisine": "pizza",
                "addr:city": "Cagliari",
                "payment:bitcoin": "yes",
                "addr:postcode": "09124",
                "phone": "+39 0706848243",
                "opening_hours": "19:30 - 24:00",
                "email": "info@enorestaurant.it",
                "addr:street": "Via Giovanni Maria Angioy"
            }
        },
        {
            "osm_id": 2001271488,
            "poi_type": "amenity",
            "poi_subtype": "restaurant",
            "lat": 39.2050478,
            "lon": 9.1250495,
            "name": "Pizzeria RariNantes",
            "tags": {
                "cuisine": "pizza"
            }
        },
        {
            "osm_id": 4229048109,
            "poi_type": "amenity",
            "poi_subtype": "restaurant",
            "lat": 39.215202,
            "lon": 9.1177661,
            "name": "Pizzeria Ristorante Sa Tracca",
            "tags": {
                "cuisine": "regionalsardinianpizza",
                "addr:city": "Cagliari",
                "opening_hours": "Tu-Fr 12:30-15:00,20:00-23:30 Sa,Su 20:00-23:30",
                "phone": "+39 070 658027",
                "facebook": "https://www.facebook.com/Pizzeria-SA-TRACCA-165812735195/",
                "takeaway": "yes",
                "addr:street": "Via Costituzione"
            }
        },
        {
            "osm_id": 1388391553,
            "poi_type": "amenity",
            "poi_subtype": "restaurant",
            "lat": 39.2176003,
            "lon": 9.1111441,
            "name": "Pomosardagna SRL",
            "tags": {
                "cuisine": "italian",
                "addr:postcode": "09124",
                "addr:street": "Via Sassari"
            }
        },
        {
            "osm_id": 128049122,
            "poi_type": "amenity",
            "poi_subtype": "restaurant",
            "lat": 39.2514712,
            "lon": 9.1041834,
            "name": "Quadrifoglio Restaurant",
            "tags": {
                "website": "https://www.hotelquadrifoglio.net/index.php?option=com_content&task=view&id=16&Itemid=43&lang=it",
                "cuisine": "italianregional",
                "addr:postcode": "09100",
                "wheelchair": "yes",
                "phone": "+39 070 541719",
                "addr:street": "Via Giuseppe Peretti"
            }
        },
        {
            "osm_id": 277834216,
            "poi_type": "amenity",
            "poi_subtype": "restaurant",
            "lat": 39.2672401,
            "lon": 9.1412512,
            "name": "Quo Vadis",
            "tags": {
                "cuisine": "italian",
                "addr:postcode": "09042",
                "addr:city": "Monserrato",
                "addr:street": "SS554"
            }
        },
        {
            "osm_id": 5282843248,
            "poi_type": "amenity",
            "poi_subtype": "restaurant",
            "lat": 39.2188089,
            "lon": 9.1087166,
            "name": "Red Skin",
            "tags": {}
        },
        {
            "osm_id": 2461801781,
            "poi_type": "amenity",
            "poi_subtype": "restaurant",
            "lat": 39.2185282,
            "lon": 9.1119895,
            "name": "Retro Burger",
            "tags": {
                "phone": "+39 388 8506085",
                "wheelchair": "limited",
                "addr:street": "Via Domenico Alberto Azuni",
                "opening_hours": "Mo-Su 20:00-01:00",
                "cuisine": "burger"
            }
        },
        {
            "osm_id": 4229119981,
            "poi_type": "amenity",
            "poi_subtype": "restaurant",
            "lat": 39.2208927,
            "lon": 9.1082257,
            "name": "Ricercato",
            "tags": {
                "phone": "346 602 5808",
                "addr:street": "Via Tigellio",
                "addr:city": "Cagliari",
                "cuisine": "italian"
            }
        },
        {
            "osm_id": 3003087353,
            "poi_type": "amenity",
            "poi_subtype": "restaurant",
            "lat": 39.2176762,
            "lon": 9.1111877,
            "name": "Ristorante Ammentos",
            "tags": {
                "cuisine": "regionalsardinian",
                "addr:city": "Cagliari",
                "addr:postcode": "09124",
                "phone": "+39 070 651075",
                "facebook": "https://www.facebook.com/Ristorante-Ammentos-384215218425205/",
                "opening_hours": "Mo-Sa 13:00-15:00,20:00-00:00 Tu off Su 13:00-15:00,20:00-24:00",
                "email": "andreagraziella@yahoo.it",
                "addr:street": "Via Sassari"
            }
        },
        {
            "osm_id": 2179701239,
            "poi_type": "amenity",
            "poi_subtype": "restaurant",
            "lat": 39.2168374,
            "lon": 9.110547,
            "name": "Ristorante Flora",
            "tags": {
                "addr:street": "Via Sassari"
            }
        },
        {
            "osm_id": 4440523605,
            "poi_type": "amenity",
            "poi_subtype": "restaurant",
            "lat": 39.2201377,
            "lon": 9.1078395,
            "name": "Ristorante I mori",
            "tags": {}
        },
        {
            "osm_id": 648246677,
            "poi_type": "amenity",
            "poi_subtype": "restaurant",
            "lat": 39.2413135,
            "lon": 9.097434,
            "name": "Ristorante La Scala",
            "tags": {}
        },
        {
            "osm_id": 2727014557,
            "poi_type": "amenity",
            "poi_subtype": "restaurant",
            "lat": 39.2130328,
            "lon": 9.115109,
            "name": "Ristorante la Stella di Marina di Montecristo",
            "tags": {
                "cuisine": "regional",
                "addr:city": "Cagliari",
                "addr:street": "Via Sardegna"
            }
        },
        {
            "osm_id": 4475580964,
            "poi_type": "amenity",
            "poi_subtype": "restaurant",
            "lat": 39.3004713,
            "lon": 9.0924832,
            "name": "Ristorante Pizzeria Il Centrale",
            "tags": {
                "cuisine": "italianpizza",
                "contact:facebook": "https://www.facebook.com/pg/ilcentrale.sestu/",
                "addr:city": "Sestu",
                "addr:postcode": "09028",
                "opening_hours": "Mo-Su 00:00-01:00,06:00-24:00",
                "addr:street": "Via Roma"
            }
        },
        {
            "osm_id": 4229097855,
            "poi_type": "amenity",
            "poi_subtype": "restaurant",
            "lat": 39.2188161,
            "lon": 9.1139631,
            "name": "Ristorante Sa Piola",
            "tags": {
                "cuisine": "regionalsardinian",
                "addr:city": "Cagliari",
                "opening_hours": "Mo-Sa 12:00-16:00,19:00-00:00 Su 12:00-16:00,19:00-24:00",
                "phone": "+39 070 666714",
                "facebook": "https://www.facebook.com/RistoranteSaPiola",
                "email": "sapiolaristorante@gmail.com",
                "addr:street": "Vico Santa Margherita"
            }
        },
        {
            "osm_id": 2503805885,
            "poi_type": "amenity",
            "poi_subtype": "restaurant",
            "lat": 39.2163311,
            "lon": 9.1115068,
            "name": "Ristorante Vineria En\u00f2",
            "tags": {
                "website": "https://www.enorestaurant.it/",
                "cuisine": "italian",
                "addr:city": "Cagliari",
                "payment:bitcoin": "yes",
                "addr:postcode": "09124",
                "internet_access:fee": "no",
                "phone": "+39 0706848243",
                "opening_hours": "07:00 - 01:00",
                "internet_access": "wlan",
                "email": "info@enorestaurant.it",
                "addr:street": "Vico Carlo Felice"
            }
        },
        {
            "osm_id": 5552073669,
            "poi_type": "amenity",
            "poi_subtype": "restaurant",
            "lat": 39.2296134,
            "lon": 9.099091,
            "name": "Ristoro Rosa Dei Venti",
            "tags": {
                "addr:postcode": "09122",
                "addr:street": "Viale Sant'Avendrace"
            }
        },
        {
            "osm_id": 2530449480,
            "poi_type": "amenity",
            "poi_subtype": "restaurant",
            "lat": 39.2160019,
            "lon": 9.1097099,
            "name": "Rossopomodoro",
            "tags": {
                "cuisine": "pizza",
                "wheelchair": "no",
                "addr:city": "Cagliari",
                "toilets:wheelchair": "no",
                "addr:street": "Via Sassari"
            }
        },
        {
            "osm_id": 4229666421,
            "poi_type": "amenity",
            "poi_subtype": "restaurant",
            "lat": 39.2099372,
            "lon": 9.1199099,
            "name": "Sa Burrida",
            "tags": {
                "cuisine": "regionalsardinian",
                "addr:city": "Cagliari",
                "opening_hours": "Mo-Sa 11:00-15:00,18:00-00:00 Su 11:00-15:00,18:00-24:00",
                "wheelchair": "no",
                "phone": "+39 070 663613",
                "facebook": "https://www.facebook.com/saburrida/",
                "addr:street": "Viale Armando Diaz"
            }
        },
        {
            "osm_id": 2519768564,
            "poi_type": "amenity",
            "poi_subtype": "restaurant",
            "lat": 39.2167443,
            "lon": 9.1104459,
            "name": "Sa Domu Sarda",
            "tags": {
                "website": "http://www.osteriasadomusarda.it",
                "cuisine": "traditionalregionalsardinian",
                "addr:city": "Cagliari",
                "opening_hours": "Mo-Sa 12:30-15:30,20:00-00:00 Su 12:30-15:30,20:00-24:00",
                "phone": "+39 070 653400",
                "addr:street": "Via Sassari"
            }
        },
        {
            "osm_id": 4471098299,
            "poi_type": "amenity",
            "poi_subtype": "restaurant",
            "lat": 39.2459303,
            "lon": 9.1851717,
            "name": "Sa Ide e S'Ollia",
            "tags": {
                "cuisine": "regional",
                "addr:postcode": "09045",
                "addr:city": "Quartu Sant'Elena",
                "addr:street": "Via Cagliari"
            }
        },
        {
            "osm_id": 4229653436,
            "poi_type": "amenity",
            "poi_subtype": "restaurant",
            "lat": 39.2141642,
            "lon": 9.1133764,
            "name": "Sardegna 85",
            "tags": {
                "cuisine": "italianfishpizza",
                "contact:phone": "+39 070 657 902",
                "addr:city": "Cagliari",
                "addr:street": "Via Sardegna"
            }
        },
        {
            "osm_id": 4229140963,
            "poi_type": "amenity",
            "poi_subtype": "restaurant",
            "lat": 39.215051,
            "lon": 9.1125564,
            "name": "Sa Schironada",
            "tags": {
                "website": "http://www.saschironada.it/",
                "cuisine": "regionalsardinian",
                "addr:city": "Cagliari",
                "opening_hours": "Mo-Su 11:00-23:00",
                "phone": "+39 070 680570",
                "contact:mobile": "+39 342 8354776",
                "facebook": "https://www.facebook.com/ristorantesaschironada/",
                "internet_access": "wlan",
                "addr:street": "Via Lodovico Baylle"
            }
        },
        {
            "osm_id": 2310429934,
            "poi_type": "amenity",
            "poi_subtype": "restaurant",
            "lat": 39.2535378,
            "lon": 9.0610051,
            "name": "Self Service Gusto",
            "tags": {
                "wheelchair": "yes"
            }
        },
        {
            "osm_id": 4229080091,
            "poi_type": "amenity",
            "poi_subtype": "restaurant",
            "lat": 39.2187675,
            "lon": 9.1135878,
            "name": "Semino",
            "tags": {
                "cuisine": "italian",
                "addr:postcode": "09124",
                "addr:city": "Cagliari",
                "addr:street": "Via Santa Margherita"
            }
        },
        {
            "osm_id": 3824509668,
            "poi_type": "amenity",
            "poi_subtype": "restaurant",
            "lat": 39.2187849,
            "lon": 9.107858,
            "name": "Slot",
            "tags": {
                "addr:postcode": "09123",
                "addr:city": "Cagliari",
                "addr:street": "Via Caprera"
            }
        },
        {
            "osm_id": 2726975489,
            "poi_type": "amenity",
            "poi_subtype": "restaurant",
            "lat": 39.2142738,
            "lon": 9.112415,
            "name": "Su Cumbidu",
            "tags": {
                "website": "http://www.sucumbidu.com",
                "cuisine": "regionalsardinian",
                "addr:city": "Cagliari",
                "addr:postcode": "09124",
                "phone": "+39 070 670712",
                "facebook": "https://www.facebook.com/su.cumbidu",
                "opening_hours": "Mo-Su 11:00-23:45",
                "email": "sucumbidu@hotmail.it",
                "addr:street": "Via Napoli"
            }
        },
        {
            "osm_id": 4229642435,
            "poi_type": "amenity",
            "poi_subtype": "restaurant",
            "lat": 39.2227621,
            "lon": 9.1213473,
            "name": "Su stampu pizzeria",
            "tags": {
                "addr:postcode": "09127",
                "name:pl": "Su stampu pizzeria",
                "addr:city": "Cagliari",
                "addr:street": "Piazza San Rocco"
            }
        },
        {
            "osm_id": 295594799,
            "poi_type": "amenity",
            "poi_subtype": "restaurant",
            "lat": 39.2965274,
            "lon": 9.0998167,
            "name": "Su Stentu",
            "tags": {
                "cuisine": "italian",
                "wheelchair": "yes"
            }
        },
        {
            "osm_id": 4438870388,
            "poi_type": "amenity",
            "poi_subtype": "restaurant",
            "lat": 39.2175112,
            "lon": 9.1127388,
            "name": "Taccas",
            "tags": {}
        },
        {
            "osm_id": 2503803711,
            "poi_type": "amenity",
            "poi_subtype": "restaurant",
            "lat": 39.2161217,
            "lon": 9.1112105,
            "name": "Tandoori",
            "tags": {
                "website": "http://www.tandooricagliari.it/",
                "cuisine": "indian",
                "addr:city": "Cagliari",
                "wheelchair": "no",
                "phone": "+39 070 3110221",
                "toilets:wheelchair": "no",
                "addr:street": "Via Giovanni Maria Angioy"
            }
        },
        {
            "osm_id": 4036184660,
            "poi_type": "amenity",
            "poi_subtype": "restaurant",
            "lat": 39.2199478,
            "lon": 9.106537,
            "name": "Taqueria Mexicana El Burrito",
            "tags": {
                "cuisine": "mexican",
                "addr:street": "Via Goffredo Mameli",
                "takeaway": "yes",
                "addr:city": "Cagliari",
                "smoking": "outside"
            }
        },
        {
            "osm_id": 3671615628,
            "poi_type": "amenity",
            "poi_subtype": "restaurant",
            "lat": 39.2525297,
            "lon": 9.137006,
            "name": "Time Out",
            "tags": {
                "cuisine": "pizza",
                "addr:postcode": "09042",
                "addr:city": "Monserrato",
                "addr:street": "Via Cesare Cabras"
            }
        },
        {
            "osm_id": 3375208271,
            "poi_type": "amenity",
            "poi_subtype": "restaurant",
            "lat": 39.219156,
            "lon": 9.1095041,
            "name": "Tot\u00f2 e Peppino Pizzeria",
            "tags": {
                "phone": "+39 3426370921",
                "addr:street": "Corso Vittorio Emanuele II",
                "takeaway": "yes",
                "addr:city": "Cagliari",
                "cuisine": "pizza"
            }
        },
        {
            "osm_id": 4053992863,
            "poi_type": "amenity",
            "poi_subtype": "restaurant",
            "lat": 39.2118712,
            "lon": 9.1139463,
            "name": "Trattoria del Porto",
            "tags": {
                "seamark:type": "small_craft_facility",
                "seamark:small_craft_facility:category": "restaurant"
            }
        },
        {
            "osm_id": 4229607705,
            "poi_type": "amenity",
            "poi_subtype": "restaurant",
            "lat": 39.2142111,
            "lon": 9.1134264,
            "name": "Trattoria Gennargentu",
            "tags": {
                "cuisine": "regionalsardinian",
                "contact:facebook": "https://www.facebook.com/Trattoria-Gennargentu-1064390823632589/",
                "addr:city": "Cagliari",
                "contact:email": "trattoriagennargentu@tiscali.it",
                "opening_hours": "Mo-Sa 12:30-15:00,20:00-23:00 We off Su 12:30-16:00",
                "contact:phone": "+39 373 865 9682",
                "payment:mastercard": "yes",
                "payment:visa": "yes",
                "payment:cash": "yes",
                "payment:american_express": "yes",
                "addr:street": "Via Sardegna"
            }
        },
        {
            "osm_id": 1758400683,
            "poi_type": "amenity",
            "poi_subtype": "restaurant",
            "lat": 39.2143863,
            "lon": 9.113173,
            "name": "Trattoria Gennargentu",
            "tags": {
                "wheelchair": "no",
                "addr:street": "Via Sardegna"
            }
        },
        {
            "osm_id": 1758400529,
            "poi_type": "amenity",
            "poi_subtype": "restaurant",
            "lat": 39.2136195,
            "lon": 9.1139026,
            "name": "trattoria il buongustaio",
            "tags": {}
        },
        {
            "osm_id": 1714661797,
            "poi_type": "amenity",
            "poi_subtype": "restaurant",
            "lat": 39.2139565,
            "lon": 9.1137841,
            "name": "Trattoria Lillicu",
            "tags": {
                "website": "http://www.trattoria.cagliari.it",
                "cuisine": "regionalseafood",
                "addr:city": "Cagliari",
                "addr:postcode": "09124",
                "outdoor_seating": "yes",
                "phone": "+39 070 652970",
                "email": "lillicu@live.it",
                "addr:street": "Via Sardegna"
            }
        },
        {
            "osm_id": 6342097577,
            "poi_type": "amenity",
            "poi_subtype": "restaurant",
            "lat": 39.2303976,
            "lon": 9.1233142,
            "name": "Troll",
            "tags": {
                "cuisine": "pizza",
                "addr:postcode": "09131",
                "addr:city": "Cagliari",
                "addr:street": "Via dei Donoratico"
            }
        },
        {
            "osm_id": 4228920279,
            "poi_type": "amenity",
            "poi_subtype": "restaurant",
            "lat": 39.2174906,
            "lon": 9.1128249,
            "name": "Universo Vegano",
            "tags": {
                "cuisine": "vegan",
                "contact:facebook": "https://www.facebook.com/UniversoVeganoCagliari/",
                "addr:city": "Cagliari",
                "contact:email": "cagliari01@universovegano.it",
                "opening_hours": "Mo-Su 12:30-16:00,19:00-23:00 Sa 12:30-16:00,19:00-24:00PH off",
                "contact:website": "www.universovegano.it",
                "contact:phone": "+39 340 675 5620",
                "diet:vegan": "only",
                "addr:street": "Corso Vittorio Emanuele II"
            }
        },
        {
            "osm_id": 2001269619,
            "poi_type": "amenity",
            "poi_subtype": "restaurant",
            "lat": 39.2064632,
            "lon": 9.1238264,
            "name": "Vendita ricci di mare",
            "tags": {
                "cuisine": "seafood"
            }
        },
        {
            "osm_id": 5127039723,
            "poi_type": "amenity",
            "poi_subtype": "restaurant",
            "lat": 39.2156891,
            "lon": 9.1135953,
            "name": "Vida",
            "tags": {
                "cuisine": "italian_pizzaitalian"
            }
        },
        {
            "osm_id": 5975170885,
            "poi_type": "amenity",
            "poi_subtype": "restaurant",
            "lat": 39.2178473,
            "lon": 9.113981,
            "name": "White Stone",
            "tags": {}
        },
        {
            "osm_id": 4471098301,
            "poi_type": "amenity",
            "poi_subtype": "restaurant",
            "lat": 39.2391707,
            "lon": 9.1798988,
            "name": "Zum Loweneck",
            "tags": {
                "website": "http://www.beerhouse.it",
                "cuisine": "bavarian",
                "capacity": "100",
                "addr:city": "Quartu Sant'Elena",
                "addr:postcode": "09045",
                "description": "Chiuso la domenica",
                "opening_hours": "Mo-Sa 19:00-01:30",
                "phone": "+39 070 811719",
                "takeaway": "yes",
                "operator": "Michele Fellmann",
                "smoking": "outside",
                "internet_access": "wlan",
                "email": "dieter@beerhouse.it",
                "addr:street": "Via Ferdinando Magellano"
            }
        },
        {
            "osm_id": 4229074583,
            "poi_type": "amenity",
            "poi_subtype": "restaurant",
            "lat": 39.2188099,
            "lon": 9.122657,
            "name": "Zupposofia",
            "tags": {
                "website": "http://www.zupposofia.it/",
                "cuisine": "italian",
                "capacity": "20",
                "addr:city": "Cagliari",
                "addr:postcode": "09127",
                "phone": "+39 380 2634150",
                "takeaway": "yes",
                "addr:street": "Via Salvatore Farina"
            }
        },
        {
            "osm_id": 4228988607,
            "poi_type": "shop",
            "poi_subtype": "appliance",
            "lat": 39.2440562,
            "lon": 9.1300916,
            "name": "TECNO RIPARAZIONI di ZOCCHEDDU ALDO",
            "tags": {
                "description": "Centri di Assistenza e vendita Elettrodomestici da cucina, forni, fornelli e piastre da cottura",
                "contact:email": "tecnorip.elet@alice.it",
                "addr:postcode": "09134",
                "contact:phone": "+39 70 4525385",
                "craft": "appliance_repair",
                "addr:street": "Via Gioachino Murat",
                "addr:city": "Cagliari"
            }
        },
        {
            "osm_id": 4914949135,
            "poi_type": "shop",
            "poi_subtype": "baby_goods",
            "lat": 39.2823245,
            "lon": 9.0736552,
            "name": "Prenatal",
            "tags": {}
        },
        {
            "osm_id": 4228988658,
            "poi_type": "shop",
            "poi_subtype": "baby_goods",
            "lat": 39.2229388,
            "lon": 9.1249685,
            "name": "Primigi",
            "tags": {
                "addr:city": "Cagliari",
                "addr:street": "Via Dante Alighieri"
            }
        },
        {
            "osm_id": 4228905918,
            "poi_type": "shop",
            "poi_subtype": "baby_goods",
            "lat": 39.2164881,
            "lon": 9.1188389,
            "name": "Primigi",
            "tags": {
                "addr:city": "Cagliari",
                "addr:street": "Via Giuseppe Garibaldi"
            }
        },
        {
            "osm_id": 4229612316,
            "poi_type": "shop",
            "poi_subtype": "bag",
            "lat": 39.2165074,
            "lon": 9.1142353,
            "name": "Carpisa",
            "tags": {
                "brand:wikidata": "Q28035409",
                "brand": "Carpisa",
                "brand:wikipedia": "en:Carpisa",
                "addr:city": "Cagliari",
                "addr:street": "Via Giuseppe Manno"
            }
        },
        {
            "osm_id": 4228995412,
            "poi_type": "shop",
            "poi_subtype": "bag",
            "lat": 39.2170134,
            "lon": 9.1192709,
            "name": "Piquadro",
            "tags": {
                "addr:city": "Cagliari",
                "addr:street": "Via Giuseppe Garibaldi"
            }
        },
        {
            "osm_id": 4449256152,
            "poi_type": "shop",
            "poi_subtype": "bakery",
            "lat": 39.218417,
            "lon": 9.1137509,
            "name": "Coccod\u00ec Il dolce e il salato",
            "tags": {
                "ref:vatin": "IT01683830929",
                "contact:phone": "+39 070 670468",
                "addr:street": "Via Santa Margherita"
            }
        },
        {
            "osm_id": 4258502891,
            "poi_type": "shop",
            "poi_subtype": "bakery",
            "lat": 39.2109489,
            "lon": 9.1198803,
            "name": "DA.MAR\u00d2 Pane&Dolcezze",
            "tags": {
                "phone": "+39 070 684783",
                "addr:postcode": "09125",
                "opening_hours": "Mo-Sa 07:00-14:00",
                "email": "damaro.meloni@gmail.com",
                "addr:street": "Viale Bonaria"
            }
        },
        {
            "osm_id": 4258089714,
            "poi_type": "shop",
            "poi_subtype": "bakery",
            "lat": 39.2236816,
            "lon": 9.1264979,
            "name": "DA.MAR\u00d2 Pane&Dolcezze",
            "tags": {
                "phone": "+39 070 480233",
                "addr:postcode": "09128",
                "opening_hours": "Mo-Su 07:00-14:00",
                "email": "ilpanificiomeloni@alice.it",
                "addr:street": "Via Giovanni Pascoli"
            }
        },
        {
            "osm_id": 4258089901,
            "poi_type": "shop",
            "poi_subtype": "bakery",
            "lat": 39.2229555,
            "lon": 9.1231727,
            "name": "DA.MAR\u00d2 Pane&Dolcezze",
            "tags": {
                "phone": "+39 070 454131",
                "addr:postcode": "09128",
                "opening_hours": "Mo-Sa 07:00-14:00",
                "email": "Damaro.meloni@gmail.com",
                "addr:street": "Via Francesco Cocco Ortu"
            }
        },
        {
            "osm_id": 4258090105,
            "poi_type": "shop",
            "poi_subtype": "bakery",
            "lat": 39.2266592,
            "lon": 9.1258769,
            "name": "DA.MAR\u00d2 Pane&Dolcezze",
            "tags": {
                "phone": "+39 070 482006",
                "addr:postcode": "09128",
                "opening_hours": "Mo-Su 07:00-14:00",
                "email": "ilpanificiomeloni@alice.it",
                "addr:street": "Piazza Giovanni XXIII"
            }
        },
        {
            "osm_id": 4229537827,
            "poi_type": "shop",
            "poi_subtype": "bakery",
            "lat": 39.218292,
            "lon": 9.127834,
            "name": "Il fornaio",
            "tags": {
                "addr:city": "Cagliari",
                "addr:street": "Via Giovanni Battista Tuveri"
            }
        },
        {
            "osm_id": 2714272847,
            "poi_type": "shop",
            "poi_subtype": "bakery",
            "lat": 39.2114031,
            "lon": 9.1198148,
            "name": "Le plus bon",
            "tags": {
                "website": "www.leplusbon.com/",
                "addr:city": "Cagliari",
                "addr:street": "Via Giovanni Giolitti"
            }
        },
        {
            "osm_id": 2145764424,
            "poi_type": "shop",
            "poi_subtype": "bakery",
            "lat": 39.2391513,
            "lon": 9.1853865,
            "name": "Panificio Panarte",
            "tags": {
                "wheelchair": "no"
            }
        },
        {
            "osm_id": 4229587629,
            "poi_type": "shop",
            "poi_subtype": "bakery",
            "lat": 39.2169255,
            "lon": 9.1247404,
            "name": "Panificio Pasticceria Sardegna",
            "tags": {
                "addr:city": "Cagliari",
                "addr:street": "Via Dante Alighieri"
            }
        },
        {
            "osm_id": 2455186566,
            "poi_type": "shop",
            "poi_subtype": "bakery",
            "lat": 39.2182953,
            "lon": 9.1137037,
            "name": "Panificio Santa Margherita",
            "tags": {
                "addr:city": "Cagliari",
                "addr:street": "Via Santa Margherita"
            }
        },
        {
            "osm_id": 5122526921,
            "poi_type": "shop",
            "poi_subtype": "bakery",
            "lat": 39.2239872,
            "lon": 9.1199028,
            "name": "Pasticceria Manuel",
            "tags": {}
        },
        {
            "osm_id": 1667430142,
            "poi_type": "shop",
            "poi_subtype": "bakery",
            "lat": 39.2517506,
            "lon": 9.145265,
            "name": "Pizzeria Forno Napoletano",
            "tags": {}
        },
        {
            "osm_id": 6817985186,
            "poi_type": "shop",
            "poi_subtype": "bakery",
            "lat": 39.2221927,
            "lon": 9.1037323,
            "name": "Porta",
            "tags": {
                "addr:street": "Via Goffredo Mameli"
            }
        },
        {
            "osm_id": 5775641334,
            "poi_type": "shop",
            "poi_subtype": "bicycle",
            "lat": 39.2152534,
            "lon": 9.1151869,
            "name": "Ciclofucina",
            "tags": {
                "addr:city": "Cagliari",
                "addr:postcode": "09124",
                "type:it": "ciclofficina popolare",
                "type:en": "Bike Community Workshop",
                "email": "ciclofucina@gmail.com",
                "addr:street": "Via Principe Amedeo"
            }
        },
        {
            "osm_id": 3139872462,
            "poi_type": "shop",
            "poi_subtype": "bicycle",
            "lat": 39.2198271,
            "lon": 9.1079895,
            "name": "Runner",
            "tags": {
                "wheelchair": "no"
            }
        },
        {
            "osm_id": 4229630162,
            "poi_type": "shop",
            "poi_subtype": "books",
            "lat": 39.2158767,
            "lon": 9.1156952,
            "name": "Cocco Libreria",
            "tags": {
                "wheelchair": "limited",
                "addr:city": "Cagliari",
                "addr:street": "Via Giuseppe Manno"
            }
        },
        {
            "osm_id": 4228964323,
            "poi_type": "shop",
            "poi_subtype": "books",
            "lat": 39.2170451,
            "lon": 9.1193938,
            "name": "Giunti al Punto",
            "tags": {
                "addr:city": "Cagliari",
                "addr:street": "Via Giuseppe Garibaldi"
            }
        },
        {
            "osm_id": 4229609197,
            "poi_type": "shop",
            "poi_subtype": "books",
            "lat": 39.2136004,
            "lon": 9.1133153,
            "name": "La Feltrinelli",
            "tags": {
                "addr:city": "Cagliari",
                "addr:street": "Via Roma"
            }
        },
        {
            "osm_id": 4229029104,
            "poi_type": "shop",
            "poi_subtype": "books",
            "lat": 39.2197778,
            "lon": 9.1229351,
            "name": "La Feltrinelli Point",
            "tags": {
                "addr:postcode": "09128",
                "addr:city": "Cagliari",
                "addr:street": "Via Pasquale Paoli"
            }
        },
        {
            "osm_id": 4099962529,
            "poi_type": "shop",
            "poi_subtype": "books",
            "lat": 39.2154842,
            "lon": 9.1164588,
            "name": "Libreria Il Bastione",
            "tags": {
                "wheelchair": "limited"
            }
        },
        {
            "osm_id": 4449240591,
            "poi_type": "shop",
            "poi_subtype": "books",
            "lat": 39.2194608,
            "lon": 9.111911,
            "name": "Libreria Universitaria Bonilli",
            "tags": {
                "website": "http://www.libreriabonilli.it/"
            }
        },
        {
            "osm_id": 4229013524,
            "poi_type": "shop",
            "poi_subtype": "books",
            "lat": 39.2188448,
            "lon": 9.1225311,
            "name": "Mondadori",
            "tags": {
                "addr:city": "Cagliari",
                "addr:street": "Via Salvatore Farina"
            }
        },
        {
            "osm_id": 4229005318,
            "poi_type": "shop",
            "poi_subtype": "books",
            "lat": 39.2185817,
            "lon": 9.110167,
            "name": "Mondadori",
            "tags": {
                "addr:city": "Cagliari",
                "addr:street": "Corso Vittorio Emanuele II"
            }
        },
        {
            "osm_id": 4100072905,
            "poi_type": "shop",
            "poi_subtype": "books",
            "lat": 39.2161028,
            "lon": 9.1220904,
            "name": "Succa",
            "tags": {
                "books": "comic"
            }
        },
        {
            "osm_id": 2309733318,
            "poi_type": "shop",
            "poi_subtype": "boutique",
            "lat": 39.215508,
            "lon": 9.1087656,
            "name": "Bijoux Planet",
            "tags": {}
        },
        {
            "osm_id": 6516336835,
            "poi_type": "shop",
            "poi_subtype": "butcher",
            "lat": 39.2683433,
            "lon": 9.0475338,
            "name": "Macelleria Centrale",
            "tags": {
                "addr:postcode": "09030",
                "addr:city": "Elmas",
                "addr:street": "Via Sulcitana"
            }
        },
        {
            "osm_id": 4229666300,
            "poi_type": "shop",
            "poi_subtype": "butcher",
            "lat": 39.2189506,
            "lon": 9.1288698,
            "name": "Macelleria Dess\u00ec",
            "tags": {
                "addr:city": "Cagliari",
                "addr:street": "Via Giovanni Battista Tuveri"
            }
        },
        {
            "osm_id": 6083116044,
            "poi_type": "shop",
            "poi_subtype": "car",
            "lat": 39.2235308,
            "lon": 9.1253404,
            "name": "Concessionaria Renault e Dacia Cagliari Angelo Ottolini",
            "tags": {
                "opening_hours": "08:00-13:00,14:30-19:30",
                "brand": "Renault",
                "second_hand": "yes"
            }
        },
        {
            "osm_id": 281433639,
            "poi_type": "shop",
            "poi_subtype": "car",
            "lat": 39.2556133,
            "lon": 9.0686221,
            "name": "Jaguar",
            "tags": {
                "addr:postcode": "09030",
                "addr:city": "Elmas",
                "addr:street": "Via Bacco"
            }
        },
        {
            "osm_id": 281433889,
            "poi_type": "shop",
            "poi_subtype": "car",
            "lat": 39.2548186,
            "lon": 9.072547,
            "name": "Seruis Automobili",
            "tags": {
                "operator": "Peugeot",
                "addr:street": "Via Bacco"
            }
        },
        {
            "osm_id": 281434238,
            "poi_type": "shop",
            "poi_subtype": "car",
            "lat": 39.2605329,
            "lon": 9.0788148,
            "name": "Service A.Z.C. S.R.L.",
            "tags": {
                "addr:postcode": "09030",
                "brand": "Volkswagen",
                "contact:phone": "+39 070 285910",
                "addr:city": "Cagliari",
                "addr:street": "Via Giulio Natta"
            }
        },
        {
            "osm_id": 281434107,
            "poi_type": "shop",
            "poi_subtype": "car",
            "lat": 39.2546742,
            "lon": 9.0707685,
            "name": "Siva Automobili",
            "tags": {
                "operator": "Citroen",
                "addr:street": "Via Bacco"
            }
        },
        {
            "osm_id": 5122530622,
            "poi_type": "shop",
            "poi_subtype": "car_parts",
            "lat": 39.2238711,
            "lon": 9.1203371,
            "name": "Autocarrozzeria",
            "tags": {}
        },
        {
            "osm_id": 4229609920,
            "poi_type": "shop",
            "poi_subtype": "carpet",
            "lat": 39.2191546,
            "lon": 9.1055472,
            "name": "La Persia - Said tappeti",
            "tags": {
                "opening_hours": "Mo-Fr 09:00-13:00,16:00-20:00, Sa 09:00-13:00",
                "wheelchair": "no",
                "addr:city": "Cagliari",
                "payment:all": "yes",
                "addr:street": "Viale Trieste"
            }
        },
        {
            "osm_id": 860469922,
            "poi_type": "shop",
            "poi_subtype": "car_repair",
            "lat": 39.2536501,
            "lon": 9.1616829,
            "name": "Autofficina Lancia",
            "tags": {
                "operator": "Lancia and oth."
            }
        },
        {
            "osm_id": 5856239772,
            "poi_type": "shop",
            "poi_subtype": "car_repair",
            "lat": 39.234193,
            "lon": 9.0958968,
            "name": "Centro Revisioni Santa Gilla",
            "tags": {
                "website": "https://www.revisionisantagilla.it/",
                "addr:city": "Cagliari",
                "addr:postcode": "09122",
                "service:vehicle:oil_change": "yes",
                "service:vehicle:inspection": "yes",
                "phone": "+39 070 278100",
                "service:vehicle:repairs": "yes",
                "addr:street": "Via Garigliano"
            }
        },
        {
            "osm_id": 6083116043,
            "poi_type": "shop",
            "poi_subtype": "car_repair",
            "lat": 39.2235713,
            "lon": 9.1253377,
            "name": "Concessionaria Renault e Dacia Cagliari Angelo Ottolini",
            "tags": {
                "brand": "Renault",
                "service": "dealer"
            }
        },
        {
            "osm_id": 5751140383,
            "poi_type": "shop",
            "poi_subtype": "car_repair",
            "lat": 39.2662783,
            "lon": 9.0519388,
            "name": "Elettrauto",
            "tags": {}
        },
        {
            "osm_id": 1838232904,
            "poi_type": "shop",
            "poi_subtype": "car_repair",
            "lat": 39.2403408,
            "lon": 9.2019681,
            "name": "Meccanico",
            "tags": {
                "addr:postcode": "09045",
                "addr:street": "Via Pitz'e Serra"
            }
        },
        {
            "osm_id": 4229619990,
            "poi_type": "shop",
            "poi_subtype": "car_repair",
            "lat": 39.2184522,
            "lon": 9.1280999,
            "name": "officina autorizzata Alfa Romeo",
            "tags": {
                "operator": "Alfa Romeo",
                "addr:city": "Cagliari",
                "addr:street": "Via Giovanni Battista Tuveri"
            }
        },
        {
            "osm_id": 606681087,
            "poi_type": "shop",
            "poi_subtype": "car_repair",
            "lat": 39.2550783,
            "lon": 9.0698132,
            "name": "Sarigu autorizzato",
            "tags": {
                "operator": "Volkswagen Seat Audi",
                "addr:street": "Via Bacco"
            }
        },
        {
            "osm_id": 1336847400,
            "poi_type": "shop",
            "poi_subtype": "car_repair",
            "lat": 39.2469067,
            "lon": 9.1260805,
            "name": "S.D. Autocarrozzeria",
            "tags": {}
        },
        {
            "osm_id": 5249381821,
            "poi_type": "shop",
            "poi_subtype": "cheese",
            "lat": 39.2355406,
            "lon": 9.1035059,
            "name": "Mozzarilandia",
            "tags": {
                "website": "http://www.mozzarilandia.com",
                "phone": "+393277413948",
                "opening_hours": "Mo-Fr 07:30-13:30, 17:30-20:00 Sa 07:30-13:30",
                "addr:postcode": "09121",
                "addr:street": "Via Doberd\u00f2"
            }
        },
        {
            "osm_id": 295595492,
            "poi_type": "shop",
            "poi_subtype": "cheese",
            "lat": 39.2787669,
            "lon": 9.0769584,
            "name": "Podda Formaggi",
            "tags": {
                "addr:postcode": "09028",
                "addr:street": "ex SS131"
            }
        },
        {
            "osm_id": 4916340773,
            "poi_type": "shop",
            "poi_subtype": "chemist",
            "lat": 39.2481431,
            "lon": 9.0955521,
            "name": "maurys",
            "tags": {}
        },
        {
            "osm_id": 4916359655,
            "poi_type": "shop",
            "poi_subtype": "chemist",
            "lat": 39.2516089,
            "lon": 9.0929705,
            "name": "Risparmio Casa",
            "tags": {}
        },
        {
            "osm_id": 4228966247,
            "poi_type": "shop",
            "poi_subtype": "clothes",
            "lat": 39.2146587,
            "lon": 9.1114633,
            "name": "Calzedonia",
            "tags": {
                "addr:street": "Via Roma",
                "addr:city": "Cagliari",
                "clothes": "underwear"
            }
        },
        {
            "osm_id": 4229062276,
            "poi_type": "shop",
            "poi_subtype": "clothes",
            "lat": 39.2183491,
            "lon": 9.1204694,
            "name": "Camicissima",
            "tags": {
                "addr:city": "Cagliari",
                "addr:street": "Via Giuseppe Garibaldi"
            }
        },
        {
            "osm_id": 4228979573,
            "poi_type": "shop",
            "poi_subtype": "clothes",
            "lat": 39.2156466,
            "lon": 9.1097359,
            "name": "Capitol",
            "tags": {
                "wheelchair": "no",
                "addr:city": "Cagliari",
                "addr:street": "Via Roma"
            }
        },
        {
            "osm_id": 281434638,
            "poi_type": "shop",
            "poi_subtype": "clothes",
            "lat": 39.2526937,
            "lon": 9.0829835,
            "name": "China City",
            "tags": {}
        },
        {
            "osm_id": 1810123663,
            "poi_type": "shop",
            "poi_subtype": "clothes",
            "lat": 39.2551052,
            "lon": 9.1572895,
            "name": "Clothes for babies",
            "tags": {
                "clothes": "babies"
            }
        },
        {
            "osm_id": 4229623675,
            "poi_type": "shop",
            "poi_subtype": "clothes",
            "lat": 39.2169751,
            "lon": 9.1137489,
            "name": "Desigual",
            "tags": {
                "addr:city": "Cagliari",
                "addr:street": "Via Giuseppe Manno"
            }
        },
        {
            "osm_id": 2310429924,
            "poi_type": "shop",
            "poi_subtype": "clothes",
            "lat": 39.2535987,
            "lon": 9.0607934,
            "name": "Eye Sportwear",
            "tags": {
                "wheelchair": "yes"
            }
        },
        {
            "osm_id": 4229520550,
            "poi_type": "shop",
            "poi_subtype": "clothes",
            "lat": 39.2163758,
            "lon": 9.1145566,
            "name": "Golden Point",
            "tags": {
                "addr:street": "Via Giuseppe Manno",
                "addr:city": "Cagliari",
                "clothes": "underwear"
            }
        },
        {
            "osm_id": 4445938918,
            "poi_type": "shop",
            "poi_subtype": "clothes",
            "lat": 39.2230025,
            "lon": 9.1252725,
            "name": "Intimissimi Donna",
            "tags": {
                "addr:street": "Via Dante Alighieri",
                "addr:city": "Cagliari",
                "clothes": "underwear"
            }
        },
        {
            "osm_id": 4228909387,
            "poi_type": "shop",
            "poi_subtype": "clothes",
            "lat": 39.221813,
            "lon": 9.1249297,
            "name": "Intimissimi Uomo",
            "tags": {
                "addr:street": "Via Dante Alighieri",
                "addr:city": "Cagliari",
                "clothes": "underwear"
            }
        },
        {
            "osm_id": 4229590021,
            "poi_type": "shop",
            "poi_subtype": "clothes",
            "lat": 39.2165321,
            "lon": 9.1143197,
            "name": "Liu Jo",
            "tags": {
                "addr:city": "Cagliari",
                "addr:street": "Via Giuseppe Manno"
            }
        },
        {
            "osm_id": 4229638197,
            "poi_type": "shop",
            "poi_subtype": "clothes",
            "lat": 39.2140358,
            "lon": 9.1125601,
            "name": "Loi 1926",
            "tags": {
                "addr:city": "Cagliari",
                "addr:street": "Via Roma"
            }
        },
        {
            "osm_id": 4229061699,
            "poi_type": "shop",
            "poi_subtype": "clothes",
            "lat": 39.2161593,
            "lon": 9.1172789,
            "name": "Loi 1926 - Donna",
            "tags": {
                "addr:city": "Cagliari",
                "addr:street": "Via Vincenzo Sulis"
            }
        },
        {
            "osm_id": 4229410909,
            "poi_type": "shop",
            "poi_subtype": "clothes",
            "lat": 39.2158342,
            "lon": 9.117118,
            "name": "Loi 1926 - Uomo",
            "tags": {
                "addr:city": "Cagliari",
                "addr:street": "Via Vincenzo Sulis"
            }
        },
        {
            "osm_id": 4228907786,
            "poi_type": "shop",
            "poi_subtype": "clothes",
            "lat": 39.2157958,
            "lon": 9.1174261,
            "name": "Lovable",
            "tags": {
                "addr:street": "Via Giuseppe Garibaldi",
                "addr:city": "Cagliari",
                "clothes": "underwear"
            }
        },
        {
            "osm_id": 4229135807,
            "poi_type": "shop",
            "poi_subtype": "clothes",
            "lat": 39.2167257,
            "lon": 9.1132277,
            "name": "Mango",
            "tags": {
                "brand:wikidata": "Q136503",
                "brand": "Mango",
                "brand:wikipedia": "en:Mango (retailer)",
                "addr:city": "Cagliari",
                "addr:street": "Largo Carlo Felice"
            }
        },
        {
            "osm_id": 4229580804,
            "poi_type": "shop",
            "poi_subtype": "clothes",
            "lat": 39.2168276,
            "lon": 9.1247358,
            "name": "Marcello",
            "tags": {
                "wheelchair": "no",
                "addr:city": "Cagliari",
                "addr:street": "Via Dante Alighieri"
            }
        },
        {
            "osm_id": 4229032923,
            "poi_type": "shop",
            "poi_subtype": "clothes",
            "lat": 39.2176748,
            "lon": 9.119787,
            "name": "Marella",
            "tags": {
                "addr:street": "Via Giuseppe Garibaldi",
                "addr:city": "Cagliari",
                "clothes": "women"
            }
        },
        {
            "osm_id": 4229093719,
            "poi_type": "shop",
            "poi_subtype": "clothes",
            "lat": 39.2164731,
            "lon": 9.1129047,
            "name": "Max&Co.",
            "tags": {
                "addr:city": "Cagliari",
                "addr:street": "Largo Carlo Felice"
            }
        },
        {
            "osm_id": 4229040980,
            "poi_type": "shop",
            "poi_subtype": "clothes",
            "lat": 39.2157163,
            "lon": 9.111451,
            "name": "Max Mara",
            "tags": {
                "wheelchair": "no",
                "addr:city": "Cagliari",
                "addr:street": "Largo Carlo Felice"
            }
        },
        {
            "osm_id": 4229121963,
            "poi_type": "shop",
            "poi_subtype": "clothes",
            "lat": 39.2160408,
            "lon": 9.1149551,
            "name": "Motivi",
            "tags": {
                "addr:street": "Via Giuseppe Manno",
                "addr:city": "Cagliari",
                "clothes": "women"
            }
        },
        {
            "osm_id": 4229659389,
            "poi_type": "shop",
            "poi_subtype": "clothes",
            "lat": 39.2223154,
            "lon": 9.1252431,
            "name": "Original Marines",
            "tags": {
                "addr:street": "Via Dante Alighieri",
                "addr:city": "Cagliari",
                "clothes": "children"
            }
        },
        {
            "osm_id": 4229126148,
            "poi_type": "shop",
            "poi_subtype": "clothes",
            "lat": 39.2165077,
            "lon": 9.1134429,
            "name": "OVS",
            "tags": {
                "brand:wikidata": "Q2042514",
                "brand": "OVS",
                "brand:wikipedia": "en:OVS (company)",
                "addr:city": "Cagliari",
                "addr:street": "Via Giovanni Maria Dettori"
            }
        },
        {
            "osm_id": 4213455201,
            "poi_type": "shop",
            "poi_subtype": "clothes",
            "lat": 39.2154711,
            "lon": 9.1041328,
            "name": "OVS",
            "tags": {
                "toilets:wheelchair": "yes",
                "wheelchair": "yes",
                "addr:city": "Cagliari",
                "addr:street": "Viale La Plaia"
            }
        },
        {
            "osm_id": 4229667024,
            "poi_type": "shop",
            "poi_subtype": "clothes",
            "lat": 39.2168356,
            "lon": 9.1137762,
            "name": "Parfois",
            "tags": {
                "addr:street": "Via Giuseppe Manno",
                "addr:city": "Cagliari",
                "clothes": "women"
            }
        },
        {
            "osm_id": 4228995294,
            "poi_type": "shop",
            "poi_subtype": "clothes",
            "lat": 39.2168802,
            "lon": 9.1191936,
            "name": "Particolari",
            "tags": {
                "addr:street": "Via Giuseppe Garibaldi",
                "addr:city": "Cagliari",
                "clothes": "women"
            }
        },
        {
            "osm_id": 5995859785,
            "poi_type": "shop",
            "poi_subtype": "clothes",
            "lat": 39.2168541,
            "lon": 9.1191542,
            "name": "Particolari",
            "tags": {}
        },
        {
            "osm_id": 4229622594,
            "poi_type": "shop",
            "poi_subtype": "clothes",
            "lat": 39.2168247,
            "lon": 9.1139461,
            "name": "Pimkie",
            "tags": {
                "addr:city": "Cagliari",
                "brand": "Pimkie",
                "clothes": "women",
                "brand:wikidata": "Q1758066",
                "addr:street": "Via Giuseppe Manno",
                "brand:wikipedia": "en:Pimkie"
            }
        },
        {
            "osm_id": 4229640110,
            "poi_type": "shop",
            "poi_subtype": "clothes",
            "lat": 39.2168841,
            "lon": 9.1138656,
            "name": "Sisley",
            "tags": {
                "addr:city": "Cagliari",
                "addr:street": "Via Giuseppe Manno"
            }
        },
        {
            "osm_id": 4229127945,
            "poi_type": "shop",
            "poi_subtype": "clothes",
            "lat": 39.2159582,
            "lon": 9.1178804,
            "name": "Stradivarius",
            "tags": {
                "addr:city": "Cagliari",
                "addr:street": "Via Giuseppe Garibaldi"
            }
        },
        {
            "osm_id": 4228964792,
            "poi_type": "shop",
            "poi_subtype": "clothes",
            "lat": 39.2221266,
            "lon": 9.1249427,
            "name": "Studio 54",
            "tags": {
                "addr:street": "Via Dante Alighieri",
                "addr:city": "Cagliari",
                "clothes": "women"
            }
        },
        {
            "osm_id": 4229085549,
            "poi_type": "shop",
            "poi_subtype": "clothes",
            "lat": 39.2160861,
            "lon": 9.1147839,
            "name": "Tezenis",
            "tags": {
                "brand:wikidata": "Q28056374",
                "brand": "Tezenis",
                "addr:street": "Via Giuseppe Manno",
                "addr:city": "Cagliari",
                "clothes": "underwear"
            }
        },
        {
            "osm_id": 4229605793,
            "poi_type": "shop",
            "poi_subtype": "clothes",
            "lat": 39.2204465,
            "lon": 9.1239728,
            "name": "Tezenis",
            "tags": {
                "addr:street": "Via Pasquale Paoli",
                "addr:city": "Cagliari",
                "clothes": "underwear"
            }
        },
        {
            "osm_id": 4228908235,
            "poi_type": "shop",
            "poi_subtype": "clothes",
            "lat": 39.2159842,
            "lon": 9.115607,
            "name": "T' Trussardi",
            "tags": {
                "addr:city": "Cagliari",
                "addr:street": "Via Giuseppe Manno"
            }
        },
        {
            "osm_id": 4228978621,
            "poi_type": "shop",
            "poi_subtype": "clothes",
            "lat": 39.2230028,
            "lon": 9.1249851,
            "name": "United Colors of Benetton",
            "tags": {
                "addr:city": "Cagliari",
                "addr:street": "Via Dante Alighieri"
            }
        },
        {
            "osm_id": 4229660095,
            "poi_type": "shop",
            "poi_subtype": "clothes",
            "lat": 39.222593,
            "lon": 9.1252598,
            "name": "United Colors of Benetton",
            "tags": {
                "addr:street": "Via Dante Alighieri",
                "addr:city": "Cagliari",
                "clothes": "children"
            }
        },
        {
            "osm_id": 4229634878,
            "poi_type": "shop",
            "poi_subtype": "clothes",
            "lat": 39.2166165,
            "lon": 9.1140651,
            "name": "United Colors of Benetton",
            "tags": {
                "addr:postcode": "09124",
                "addr:city": "Cagliari",
                "addr:street": "Via Giuseppe Manno"
            }
        },
        {
            "osm_id": 4229603986,
            "poi_type": "shop",
            "poi_subtype": "clothes",
            "lat": 39.2161924,
            "lon": 9.1183872,
            "name": "United Colors of Benetton",
            "tags": {
                "addr:city": "Cagliari",
                "addr:street": "Via Giuseppe Garibaldi"
            }
        },
        {
            "osm_id": 4229079492,
            "poi_type": "shop",
            "poi_subtype": "clothes",
            "lat": 39.216118,
            "lon": 9.1150768,
            "name": "United Colors of Benetton",
            "tags": {
                "addr:city": "Cagliari",
                "short_name": "Benetton",
                "brand": "United Colors of Benetton",
                "brand:wikidata": "Q817139",
                "addr:street": "Via Giuseppe Manno",
                "brand:wikipedia": "en:Benetton Group"
            }
        },
        {
            "osm_id": 2310429936,
            "poi_type": "shop",
            "poi_subtype": "clothes",
            "lat": 39.2538914,
            "lon": 9.060488,
            "name": "Waltale 1991 Airport Stores",
            "tags": {
                "wheelchair": "yes"
            }
        },
        {
            "osm_id": 4229128001,
            "poi_type": "shop",
            "poi_subtype": "clothes",
            "lat": 39.2160516,
            "lon": 9.1148737,
            "name": "Yamamay",
            "tags": {
                "addr:city": "Cagliari",
                "brand": "Yamamay",
                "clothes": "underwear",
                "brand:wikidata": "Q2599214",
                "addr:street": "Via Giuseppe Manno",
                "brand:wikipedia": "it:Yamamay"
            }
        },
        {
            "osm_id": 4229030126,
            "poi_type": "shop",
            "poi_subtype": "clothes",
            "lat": 39.2159071,
            "lon": 9.1153941,
            "name": "Zara",
            "tags": {
                "addr:city": "Cagliari",
                "addr:street": "Via Giuseppe Manno"
            }
        },
        {
            "osm_id": 6484351764,
            "poi_type": "shop",
            "poi_subtype": "coffee",
            "lat": 39.2153144,
            "lon": 9.1171718,
            "name": "Se solo fosse sale",
            "tags": {
                "website": "https://www.sesolofossesale.it/"
            }
        },
        {
            "osm_id": 4258503490,
            "poi_type": "shop",
            "poi_subtype": "confectionery",
            "lat": 39.2198877,
            "lon": 9.1082077,
            "name": "DA.MAR\u00d2 Pane&Dolcezze",
            "tags": {
                "addr:postcode": "09123",
                "wheelchair": "limited",
                "phone": "+39 070 6670284",
                "opening_hours": "Mo-Su 07:00-14:00",
                "internet_access": "wlan",
                "email": "Damaro.meloni@gmail.com",
                "addr:street": "Corso Vittorio Emanuele II"
            }
        },
        {
            "osm_id": 2183993302,
            "poi_type": "shop",
            "poi_subtype": "confectionery",
            "lat": 39.2372603,
            "lon": 9.1767004,
            "name": "Pasticceria Pirani",
            "tags": {
                "wheelchair": "no"
            }
        },
        {
            "osm_id": 277188276,
            "poi_type": "shop",
            "poi_subtype": "convenience",
            "lat": 39.1983838,
            "lon": 9.1487041,
            "name": "Conad City",
            "tags": {
                "addr:city": "Cagliari",
                "addr:street": "Via S'Arrulloni"
            }
        },
        {
            "osm_id": 4213814890,
            "poi_type": "shop",
            "poi_subtype": "convenience",
            "lat": 39.2219095,
            "lon": 9.13008,
            "name": "Crai",
            "tags": {
                "addr:city": "Cagliari",
                "addr:street": "Via Pierluigi da Palestrina"
            }
        },
        {
            "osm_id": 5810357360,
            "poi_type": "shop",
            "poi_subtype": "convenience",
            "lat": 39.2175891,
            "lon": 9.1132104,
            "name": "Crai",
            "tags": {
                "opening_hours": "Mo-Th 08:00-23:00 Fr, Sa 08:00-00:00 Su 09:00-23:00"
            }
        },
        {
            "osm_id": 5809517153,
            "poi_type": "shop",
            "poi_subtype": "convenience",
            "lat": 39.215004,
            "lon": 9.1118293,
            "name": "Delizie di Sardegna",
            "tags": {}
        },
        {
            "osm_id": 3348350949,
            "poi_type": "shop",
            "poi_subtype": "convenience",
            "lat": 39.2210153,
            "lon": 9.1295594,
            "name": "Despar Mini Market",
            "tags": {
                "operator": "Despar",
                "opening_hours": "08:00 - 22:30",
                "addr:city": "Cagliari",
                "addr:street": "Via Giovanni Battista Pergolesi"
            }
        },
        {
            "osm_id": 4215565998,
            "poi_type": "shop",
            "poi_subtype": "convenience",
            "lat": 39.2234418,
            "lon": 9.1226463,
            "name": "Fresco D\u00ec",
            "tags": {
                "addr:city": "Cagliari",
                "addr:street": "Via Francesco Cocco Ortu"
            }
        },
        {
            "osm_id": 1343313115,
            "poi_type": "shop",
            "poi_subtype": "convenience",
            "lat": 39.2183645,
            "lon": 9.1123798,
            "name": "Gianna e Lello",
            "tags": {
                "phone": "+39 338 4830585",
                "wheelchair": "no",
                "addr:street": "Via Domenico Alberto Azuni"
            }
        },
        {
            "osm_id": 1165439774,
            "poi_type": "shop",
            "poi_subtype": "convenience",
            "lat": 39.2128647,
            "lon": 9.1284744,
            "name": "Gieffe",
            "tags": {
                "addr:city": "Cagliari",
                "addr:street": "Via Gianquinto De Gioannis"
            }
        },
        {
            "osm_id": 3348373461,
            "poi_type": "shop",
            "poi_subtype": "convenience",
            "lat": 39.2584509,
            "lon": 9.1460956,
            "name": "I Cherchi",
            "tags": {
                "addr:postcode": "09042",
                "addr:city": "Monserrato",
                "addr:street": "Via San Gottardo"
            }
        },
        {
            "osm_id": 5800715054,
            "poi_type": "shop",
            "poi_subtype": "convenience",
            "lat": 39.21461,
            "lon": 9.1063733,
            "name": "La Cambusa",
            "tags": {
                "wheelchair": "no"
            }
        },
        {
            "osm_id": 2553060126,
            "poi_type": "shop",
            "poi_subtype": "convenience",
            "lat": 39.2326863,
            "lon": 9.1260244,
            "name": "L'angolo dei sapori",
            "tags": {
                "addr:postcode": "09131",
                "addr:street": "Via Giuseppe Biasi"
            }
        },
        {
            "osm_id": 4278074531,
            "poi_type": "shop",
            "poi_subtype": "convenience",
            "lat": 39.2187038,
            "lon": 9.1099919,
            "name": "Maria Francesca Delogu",
            "tags": {}
        },
        {
            "osm_id": 6153199995,
            "poi_type": "shop",
            "poi_subtype": "convenience",
            "lat": 39.2401168,
            "lon": 9.1022536,
            "name": "Market e Panificio",
            "tags": {
                "operator": "Olianas",
                "addr:city": "Cagliari",
                "addr:street": "Via Mandrolisai"
            }
        },
        {
            "osm_id": 4213816991,
            "poi_type": "shop",
            "poi_subtype": "convenience",
            "lat": 39.2404864,
            "lon": 9.1329159,
            "name": "Met\u00e0",
            "tags": {
                "addr:city": "Cagliari",
                "addr:street": "Via Mentana"
            }
        },
        {
            "osm_id": 4472375094,
            "poi_type": "shop",
            "poi_subtype": "convenience",
            "lat": 39.2546508,
            "lon": 9.1807107,
            "name": "Met\u00e0",
            "tags": {
                "addr:postcode": "09044",
                "addr:city": "Quartucciu",
                "addr:street": "Via Nazionale"
            }
        },
        {
            "osm_id": 4133311993,
            "poi_type": "shop",
            "poi_subtype": "convenience",
            "lat": 39.2380927,
            "lon": 9.1734231,
            "name": "Ninny",
            "tags": {}
        },
        {
            "osm_id": 4471060131,
            "poi_type": "shop",
            "poi_subtype": "convenience",
            "lat": 39.2353715,
            "lon": 9.1842253,
            "name": "Nonna Isa",
            "tags": {
                "addr:postcode": "09045",
                "wheelchair": "no",
                "addr:city": "Quartu Sant'Elena",
                "addr:street": "Via Ugo Foscolo"
            }
        },
        {
            "osm_id": 5808818855,
            "poi_type": "shop",
            "poi_subtype": "convenience",
            "lat": 39.2137483,
            "lon": 9.1133021,
            "name": "Sapori di Sardegna",
            "tags": {}
        },
        {
            "osm_id": 4472389865,
            "poi_type": "shop",
            "poi_subtype": "convenience",
            "lat": 39.2506911,
            "lon": 9.1780335,
            "name": "Sigma",
            "tags": {
                "addr:postcode": "09044",
                "addr:city": "Quartucciu",
                "addr:street": "Via Quartu"
            }
        },
        {
            "osm_id": 3375220776,
            "poi_type": "shop",
            "poi_subtype": "copyshop",
            "lat": 39.2298828,
            "lon": 9.1134121,
            "name": "CopyLeader Srl",
            "tags": {
                "addr:postcode": "09127",
                "addr:city": "Cagliari",
                "addr:street": "Via Basilicata"
            }
        },
        {
            "osm_id": 6342346153,
            "poi_type": "shop",
            "poi_subtype": "cosmetics",
            "lat": 39.2324467,
            "lon": 9.1259309,
            "name": "Acqua e sapone",
            "tags": {
                "addr:postcode": "09131",
                "addr:city": "Cagliari",
                "addr:street": "Via Giuseppe Biasi"
            }
        },
        {
            "osm_id": 4229553798,
            "poi_type": "shop",
            "poi_subtype": "cosmetics",
            "lat": 39.2181281,
            "lon": 9.1275498,
            "name": "Saponi e Profumi",
            "tags": {
                "operator": "Saponi e Profumi",
                "addr:city": "Cagliari",
                "addr:street": "Via Giovanni Battista Tuveri"
            }
        },
        {
            "osm_id": 4228901255,
            "poi_type": "shop",
            "poi_subtype": "dairy",
            "lat": 39.2169256,
            "lon": 9.1255682,
            "name": "Yogurtlandia",
            "tags": {
                "addr:city": "Cagliari",
                "addr:street": "Piazza della Repubblica"
            }
        },
        {
            "osm_id": 277192721,
            "poi_type": "shop",
            "poi_subtype": "deli",
            "lat": 39.2214909,
            "lon": 9.106832,
            "name": "Il rifugio dei sapori",
            "tags": {}
        },
        {
            "osm_id": 6153199997,
            "poi_type": "shop",
            "poi_subtype": "deli",
            "lat": 39.2399893,
            "lon": 9.1020913,
            "name": "L'angolo del gusto",
            "tags": {
                "addr:city": "Cagliari",
                "addr:street": "Via Mandrolisai"
            }
        },
        {
            "osm_id": 6153199996,
            "poi_type": "shop",
            "poi_subtype": "deli",
            "lat": 39.2399979,
            "lon": 9.1021497,
            "name": "L'angolo del gusto",
            "tags": {
                "addr:city": "Cagliari",
                "addr:street": "Via Mandrolisai"
            }
        },
        {
            "osm_id": 4445845530,
            "poi_type": "shop",
            "poi_subtype": "deli",
            "lat": 39.2226602,
            "lon": 9.1237089,
            "name": "Lo squisito",
            "tags": {}
        },
        {
            "osm_id": 3799048363,
            "poi_type": "shop",
            "poi_subtype": "deli",
            "lat": 39.2156284,
            "lon": 9.1135317,
            "name": "Su scabecciu e sa frittura",
            "tags": {
                "cuisine": "fish"
            }
        },
        {
            "osm_id": 4228916765,
            "poi_type": "shop",
            "poi_subtype": "department_store",
            "lat": 39.2228088,
            "lon": 9.1248757,
            "name": "Coin",
            "tags": {
                "addr:city": "Cagliari",
                "addr:street": "Via Dante Alighieri"
            }
        },
        {
            "osm_id": 5895650224,
            "poi_type": "shop",
            "poi_subtype": "department_store",
            "lat": 39.2148674,
            "lon": 9.1111178,
            "name": "La Rinascente",
            "tags": {
                "website": "https://www.rinascente.it",
                "addr:city": "Cagliari",
                "addr:street": "Via Roma"
            }
        },
        {
            "osm_id": 4229666446,
            "poi_type": "shop",
            "poi_subtype": "department_store",
            "lat": 39.2231143,
            "lon": 9.1252733,
            "name": "OVS",
            "tags": {
                "addr:city": "Cagliari",
                "addr:street": "Via Dante Alighieri"
            }
        },
        {
            "osm_id": 4916418398,
            "poi_type": "shop",
            "poi_subtype": "doityourself",
            "lat": 39.2391911,
            "lon": 9.1205039,
            "name": "Bricofer",
            "tags": {}
        },
        {
            "osm_id": 4167721549,
            "poi_type": "shop",
            "poi_subtype": "doityourself",
            "lat": 39.2482761,
            "lon": 9.1947611,
            "name": "Brico Io",
            "tags": {
                "addr:city": "Quartu Sant'Elena",
                "addr:street": "Via Guglielmo Marconi"
            }
        },
        {
            "osm_id": 281433281,
            "poi_type": "shop",
            "poi_subtype": "doityourself",
            "lat": 39.2740322,
            "lon": 9.053993,
            "name": "Bricoman",
            "tags": {
                "website": "https://www.bricoman.it/n/elmas/",
                "brand": "Bricoman",
                "brand:wikidata": "Q2925142",
                "brand:wikipedia": "it:Bricoman"
            }
        },
        {
            "osm_id": 295594599,
            "poi_type": "shop",
            "poi_subtype": "doityourself",
            "lat": 39.2763976,
            "lon": 9.0785574,
            "name": "Bricoworld",
            "tags": {}
        },
        {
            "osm_id": 277184278,
            "poi_type": "shop",
            "poi_subtype": "doityourself",
            "lat": 39.2400999,
            "lon": 9.1200591,
            "name": "CFadda",
            "tags": {
                "website": "https://www.cfadda.com/",
                "addr:postcode": "09134",
                "addr:city": "Cagliari",
                "addr:street": "Via Calamattia"
            }
        },
        {
            "osm_id": 295595052,
            "poi_type": "shop",
            "poi_subtype": "doityourself",
            "lat": 39.2833778,
            "lon": 9.0723776,
            "name": "Legno Brico",
            "tags": {}
        },
        {
            "osm_id": 4440523602,
            "poi_type": "shop",
            "poi_subtype": "dry_cleaning",
            "lat": 39.2199978,
            "lon": 9.1080895,
            "name": "Lavasecco Roberta",
            "tags": {}
        },
        {
            "osm_id": 6342114155,
            "poi_type": "shop",
            "poi_subtype": "electronics",
            "lat": 39.230072,
            "lon": 9.1239906,
            "name": "GBC",
            "tags": {
                "addr:postcode": "09131",
                "addr:city": "Cagliari",
                "addr:street": "Via dei Donoratico"
            }
        },
        {
            "osm_id": 223988451,
            "poi_type": "shop",
            "poi_subtype": "electronics",
            "lat": 39.2779172,
            "lon": 9.0775449,
            "name": "Media World",
            "tags": {
                "brand": "Media Markt",
                "brand:wikidata": "Q2381223",
                "brand:wikipedia": "en:Media Markt"
            }
        },
        {
            "osm_id": 4910975902,
            "poi_type": "shop",
            "poi_subtype": "electronics",
            "lat": 39.2936825,
            "lon": 9.0685015,
            "name": "Unieuro",
            "tags": {}
        },
        {
            "osm_id": 6208473863,
            "poi_type": "shop",
            "poi_subtype": "erotic",
            "lat": 39.2144324,
            "lon": 9.1081522,
            "name": "Porky'sSex Store",
            "tags": {
                "addr:postcode": "09123",
                "opening_hours": "Mo-Sa 10:00-22:00 Su 10:00-13:00,17:00-22:00",
                "addr:city": "Cagliari",
                "addr:street": "Via Sassari"
            }
        },
        {
            "osm_id": 561272831,
            "poi_type": "shop",
            "poi_subtype": "fabric",
            "lat": 39.2853373,
            "lon": 9.0799926,
            "name": "Magazzini Guerra",
            "tags": {
                "addr:city": "se"
            }
        },
        {
            "osm_id": 5800810353,
            "poi_type": "shop",
            "poi_subtype": "fabric",
            "lat": 39.2153367,
            "lon": 9.1110467,
            "name": "Magazzini Tessili",
            "tags": {
                "wheelchair": "limited"
            }
        },
        {
            "osm_id": 4863984547,
            "poi_type": "shop",
            "poi_subtype": "fashion",
            "lat": 39.2167358,
            "lon": 9.11777,
            "name": "Donne Concept Store",
            "tags": {
                "operator": "Donne SRL",
                "email": "info@donneconceptstore.com",
                "addr:street": "Via Vincenzo Sulis"
            }
        },
        {
            "osm_id": 5800813654,
            "poi_type": "shop",
            "poi_subtype": "florist",
            "lat": 39.2156883,
            "lon": 9.111455,
            "name": "De Ministo",
            "tags": {
                "wheelchair": "no"
            }
        },
        {
            "osm_id": 4471060127,
            "poi_type": "shop",
            "poi_subtype": "florist",
            "lat": 39.234349,
            "lon": 9.1851774,
            "name": "Fioricoltura Althea",
            "tags": {
                "addr:city": "Quartu Sant'Elena",
                "addr:postcode": "09045",
                "wheelchair": "no",
                "phone": "+39 070815008",
                "operator": "Deiana Roberto",
                "addr:street": "Via Giambattista Vico"
            }
        },
        {
            "osm_id": 2284028134,
            "poi_type": "shop",
            "poi_subtype": "florist",
            "lat": 39.2213638,
            "lon": 9.1246775,
            "name": "Fioricultura Maria Cristina",
            "tags": {
                "phone": "+39 070 498171",
                "addr:country": "IT",
                "addr:city": "Cagliari",
                "addr:street": "Piazza San Benedetto"
            }
        },
        {
            "osm_id": 277193623,
            "poi_type": "shop",
            "poi_subtype": "furniture",
            "lat": 39.2367679,
            "lon": 9.1431559,
            "name": "Ambiente Cucina",
            "tags": {}
        },
        {
            "osm_id": 4916608921,
            "poi_type": "shop",
            "poi_subtype": "furniture",
            "lat": 39.2321773,
            "lon": 9.0980184,
            "name": "Berloni",
            "tags": {
                "addr:postcode": "09122",
                "addr:city": "Cagliari",
                "addr:street": "Viale Sant'Avendrace"
            }
        },
        {
            "osm_id": 277187474,
            "poi_type": "shop",
            "poi_subtype": "furniture",
            "lat": 39.2397343,
            "lon": 9.1197366,
            "name": "Cannavera",
            "tags": {
                "website": "http://www.cannavera.it",
                "addr:postcode": "09134",
                "addr:city": "Cagliari",
                "addr:street": "Via dei Carroz"
            }
        },
        {
            "osm_id": 295594286,
            "poi_type": "shop",
            "poi_subtype": "furniture",
            "lat": 39.2811205,
            "lon": 9.0756738,
            "name": "Casa in",
            "tags": {}
        },
        {
            "osm_id": 500641882,
            "poi_type": "shop",
            "poi_subtype": "furniture",
            "lat": 39.2576001,
            "lon": 9.089574,
            "name": "Chateau d'Ax",
            "tags": {}
        },
        {
            "osm_id": 4916404372,
            "poi_type": "shop",
            "poi_subtype": "furniture",
            "lat": 39.2166031,
            "lon": 9.1220536,
            "name": "Divani&Divani",
            "tags": {
                "addr:postcode": "09127",
                "addr:city": "Cagliari",
                "addr:street": "Via Sebastiano Satta"
            }
        },
        {
            "osm_id": 4916630216,
            "poi_type": "shop",
            "poi_subtype": "furniture",
            "lat": 39.2366785,
            "lon": 9.1425273,
            "name": "edue",
            "tags": {}
        },
        {
            "osm_id": 4916640058,
            "poi_type": "shop",
            "poi_subtype": "furniture",
            "lat": 39.2492732,
            "lon": 9.1349281,
            "name": "Eva Arredamenti Outlet",
            "tags": {
                "addr:postcode": "09134",
                "addr:city": "Cagliari",
                "addr:street": "Via Dolianova"
            }
        },
        {
            "osm_id": 277192357,
            "poi_type": "shop",
            "poi_subtype": "furniture",
            "lat": 39.2362815,
            "lon": 9.1423919,
            "name": "IKEA Ritira, ordina, arreda",
            "tags": {
                "operator": "IKEA",
                "addr:postcode": "09131",
                "addr:city": "Cagliari",
                "addr:street": "Viale Guglielmo Marconi"
            }
        },
        {
            "osm_id": 4914949129,
            "poi_type": "shop",
            "poi_subtype": "furniture",
            "lat": 39.2942923,
            "lon": 9.0677853,
            "name": "jysk",
            "tags": {}
        },
        {
            "osm_id": 295596411,
            "poi_type": "shop",
            "poi_subtype": "furniture",
            "lat": 39.2902271,
            "lon": 9.067528,
            "name": "Mobil discount",
            "tags": {}
        },
        {
            "osm_id": 4916679525,
            "poi_type": "shop",
            "poi_subtype": "furniture",
            "lat": 39.2346045,
            "lon": 9.1114341,
            "name": "Mobil discount",
            "tags": {}
        },
        {
            "osm_id": 295596743,
            "poi_type": "shop",
            "poi_subtype": "furniture",
            "lat": 39.2953895,
            "lon": 9.0639989,
            "name": "Moina",
            "tags": {}
        },
        {
            "osm_id": 4914956236,
            "poi_type": "shop",
            "poi_subtype": "furniture",
            "lat": 39.2864671,
            "lon": 9.070898,
            "name": "Mondo Camerette",
            "tags": {}
        },
        {
            "osm_id": 4916320840,
            "poi_type": "shop",
            "poi_subtype": "furniture",
            "lat": 39.2362075,
            "lon": 9.1416946,
            "name": "Poltronesof\u00e0",
            "tags": {
                "addr:city": "Cagliari",
                "addr:postcode": "09131",
                "brand": "Poltronesof\u00e0",
                "brand:wikidata": "Q80833069",
                "operator": "Poltronesof\u00e0",
                "addr:street": "Viale Guglielmo Marconi"
            }
        },
        {
            "osm_id": 4916312857,
            "poi_type": "shop",
            "poi_subtype": "furniture",
            "lat": 39.2114129,
            "lon": 9.1188134,
            "name": "Poltronesof\u00e0",
            "tags": {
                "addr:city": "Cagliari",
                "addr:postcode": "09125",
                "brand": "Poltronesof\u00e0",
                "brand:wikidata": "Q80833069",
                "operator": "Poltronesof\u00e0",
                "addr:street": "Via Sidney Sonnino"
            }
        },
        {
            "osm_id": 2310429902,
            "poi_type": "shop",
            "poi_subtype": "gift",
            "lat": 39.2536643,
            "lon": 9.0609083,
            "name": "Ajo Kose di Sardegna",
            "tags": {
                "wheelchair": "yes"
            }
        },
        {
            "osm_id": 3362115033,
            "poi_type": "shop",
            "poi_subtype": "gift",
            "lat": 39.2188918,
            "lon": 9.1099221,
            "name": "Bottega del Mondo Sucania",
            "tags": {
                "website": "http://web.tiscali.it/sucania/",
                "toilets:wheelchair": "no",
                "wheelchair": "yes",
                "addr:city": "Cagliari",
                "addr:street": "Corso Vittorio Emanuele II"
            }
        },
        {
            "osm_id": 748769782,
            "poi_type": "shop",
            "poi_subtype": "GPL AUTO",
            "lat": 39.2535081,
            "lon": 9.1132907,
            "name": "Gastecnology.it",
            "tags": {}
        },
        {
            "osm_id": 3139868136,
            "poi_type": "shop",
            "poi_subtype": "greengrocer",
            "lat": 39.2174644,
            "lon": 9.1089202,
            "name": "Fresco D\u00ec",
            "tags": {
                "operator": "Fresco D\u00ec Societ\u00e0 Agricola",
                "addr:street": "Via Maddalena"
            }
        },
        {
            "osm_id": 3957217769,
            "poi_type": "shop",
            "poi_subtype": "haberdashery",
            "lat": 39.2258161,
            "lon": 9.1250707,
            "name": "Mercerie Piu",
            "tags": {
                "addr:street": "Via Dante Alighieri"
            }
        },
        {
            "osm_id": 6342346155,
            "poi_type": "shop",
            "poi_subtype": "hairdresser",
            "lat": 39.2299623,
            "lon": 9.1227779,
            "name": "CHARME Centro Estetico Parruchieri",
            "tags": {
                "addr:postcode": "09131",
                "addr:city": "Cagliari",
                "addr:street": "Via dei Visconti"
            }
        },
        {
            "osm_id": 706394938,
            "poi_type": "shop",
            "poi_subtype": "hairdresser",
            "lat": 39.2687779,
            "lon": 9.0470427,
            "name": "Daniele",
            "tags": {
                "addr:postcode": "09030",
                "addr:city": "Elmas",
                "addr:street": "Via Sulcitana"
            }
        },
        {
            "osm_id": 6372787211,
            "poi_type": "shop",
            "poi_subtype": "hairdresser",
            "lat": 39.2164163,
            "lon": 9.1209006,
            "name": "Mr Monkey",
            "tags": {
                "phone": "070662446",
                "name:it": "Mr Monkey Barber only for Gentlemen",
                "addr:street": "Via Sidney Sonnino"
            }
        },
        {
            "osm_id": 6578210485,
            "poi_type": "shop",
            "poi_subtype": "hairdresser",
            "lat": 39.2691368,
            "lon": 9.0489128,
            "name": "Paolo Hair Style",
            "tags": {
                "addr:postcode": "09030",
                "opening_hours": "Tu-Fr 09:00- 13:00 15:30 19:00, Sa 09:00 13:00",
                "addr:city": "Elmas",
                "addr:street": "Via del Prato"
            }
        },
        {
            "osm_id": 4229087819,
            "poi_type": "shop",
            "poi_subtype": "hairdresser",
            "lat": 39.2194252,
            "lon": 9.108951,
            "name": "Recut",
            "tags": {
                "wheelchair": "no",
                "addr:city": "Cagliari",
                "addr:street": "Corso Vittorio Emanuele II"
            }
        },
        {
            "osm_id": 4438870890,
            "poi_type": "shop",
            "poi_subtype": "hairdresser",
            "lat": 39.2180698,
            "lon": 9.1117384,
            "name": "Ringo",
            "tags": {}
        },
        {
            "osm_id": 6342073897,
            "poi_type": "shop",
            "poi_subtype": "hairdresser",
            "lat": 39.231128,
            "lon": 9.1224581,
            "name": "Salone Tullio",
            "tags": {
                "addr:city": "Cagliari",
                "addr:street": "Via Giovanni Capula"
            }
        },
        {
            "osm_id": 1942698767,
            "poi_type": "shop",
            "poi_subtype": "hairdresser",
            "lat": 39.2552131,
            "lon": 9.1569158,
            "name": "Wella hairdresser",
            "tags": {}
        },
        {
            "osm_id": 4229634286,
            "poi_type": "shop",
            "poi_subtype": "hardware",
            "lat": 39.2171247,
            "lon": 9.1121768,
            "name": "Ferramenta-Coltelleria",
            "tags": {
                "operator": "Clemente Binelli &C. Srl",
                "addr:city": "Cagliari",
                "addr:street": "Via Giovanni Maria Angioy"
            }
        },
        {
            "osm_id": 5566991521,
            "poi_type": "shop",
            "poi_subtype": "hardware",
            "lat": 39.2203333,
            "lon": 9.1050976,
            "name": "Ferramenta Spiga",
            "tags": {
                "wheelchair": "no"
            }
        },
        {
            "osm_id": 4445938919,
            "poi_type": "shop",
            "poi_subtype": "houseware",
            "lat": 39.217326,
            "lon": 9.1213099,
            "name": "Kasanova",
            "tags": {
                "phone": "+39 070 684729",
                "addr:street": "Via Sidney Sonnino"
            }
        },
        {
            "osm_id": 4228955175,
            "poi_type": "shop",
            "poi_subtype": "jewelry",
            "lat": 39.216983,
            "lon": 9.1192604,
            "name": "Pandora",
            "tags": {
                "addr:city": "Cagliari",
                "addr:street": "Via Giuseppe Garibaldi"
            }
        },
        {
            "osm_id": 5995859686,
            "poi_type": "shop",
            "poi_subtype": "jewelry",
            "lat": 39.2169083,
            "lon": 9.1191853,
            "name": "Pandora",
            "tags": {}
        },
        {
            "osm_id": 5210688822,
            "poi_type": "shop",
            "poi_subtype": "jewelry",
            "lat": 39.2170082,
            "lon": 9.1180849,
            "name": "Soha",
            "tags": {
                "name:en": "Soha Jewelry"
            }
        },
        {
            "osm_id": 1996892623,
            "poi_type": "shop",
            "poi_subtype": "kiosk",
            "lat": 39.2068111,
            "lon": 9.1382073,
            "name": "edicola",
            "tags": {}
        },
        {
            "osm_id": 1996892497,
            "poi_type": "shop",
            "poi_subtype": "kiosk",
            "lat": 39.2097748,
            "lon": 9.141678,
            "name": "edicola",
            "tags": {}
        },
        {
            "osm_id": 1996946260,
            "poi_type": "shop",
            "poi_subtype": "kiosk",
            "lat": 39.2072788,
            "lon": 9.134221,
            "name": "edicola",
            "tags": {}
        },
        {
            "osm_id": 2176989491,
            "poi_type": "shop",
            "poi_subtype": "kiosk",
            "lat": 39.2366224,
            "lon": 9.1755713,
            "name": "Tabacchi",
            "tags": {
                "addr:postcode": "09045",
                "opening_hours": "Mo-Sa 07:15-13:30,16:15-20:30",
                "addr:city": "Quartu Sant'Elena",
                "addr:street": "Via Arrigo Boito"
            }
        },
        {
            "osm_id": 4229049658,
            "poi_type": "shop",
            "poi_subtype": "laundry",
            "lat": 39.2141239,
            "lon": 9.1208251,
            "name": "Il mago del pulito",
            "tags": {
                "phone": "+39 338 8786488",
                "opening_hours": "08:30-13:00,16:30-20:00",
                "addr:city": "Cagliari",
                "addr:street": "Via Logudoro"
            }
        },
        {
            "osm_id": 2270304578,
            "poi_type": "shop",
            "poi_subtype": "laundry",
            "lat": 39.2348148,
            "lon": 9.1825641,
            "name": "Lavanderia Calimero",
            "tags": {
                "wheelchair": "no"
            }
        },
        {
            "osm_id": 5808852653,
            "poi_type": "shop",
            "poi_subtype": "laundry",
            "lat": 39.2172018,
            "lon": 9.1182446,
            "name": "Lavanderia San Giacomo",
            "tags": {}
        },
        {
            "osm_id": 4229617995,
            "poi_type": "shop",
            "poi_subtype": "laundry",
            "lat": 39.2189014,
            "lon": 9.1288032,
            "name": "Nuova rekord",
            "tags": {
                "addr:city": "Cagliari",
                "addr:street": "Via Giovanni Battista Tuveri"
            }
        },
        {
            "osm_id": 143379481,
            "poi_type": "shop",
            "poi_subtype": "mall",
            "lat": 39.2554498,
            "lon": 9.156843,
            "name": "Centro commerciale Al Parco",
            "tags": {
                "addr:city": "Selargius"
            }
        },
        {
            "osm_id": 28559382,
            "poi_type": "shop",
            "poi_subtype": "mall",
            "lat": 39.2481777,
            "lon": 9.1356652,
            "name": "Centro Commerciale Auchan Marconi",
            "tags": {
                "wheelchair": "yes"
            }
        },
        {
            "osm_id": 277187250,
            "poi_type": "shop",
            "poi_subtype": "mall",
            "lat": 39.2157333,
            "lon": 9.1037624,
            "name": "Centro commerciale La Playa",
            "tags": {
                "wheelchair": "yes"
            }
        },
        {
            "osm_id": 118707058,
            "poi_type": "shop",
            "poi_subtype": "mall",
            "lat": 39.2320984,
            "lon": 9.0915653,
            "name": "Centro commerciale Santa Gilla",
            "tags": {}
        },
        {
            "osm_id": 499914738,
            "poi_type": "shop",
            "poi_subtype": "mall",
            "lat": 39.2937093,
            "lon": 9.0683366,
            "name": "Cortexandra Retail Park",
            "tags": {}
        },
        {
            "osm_id": 278321209,
            "poi_type": "shop",
            "poi_subtype": "mall",
            "lat": 39.2531714,
            "lon": 9.1032069,
            "name": "I Mulini",
            "tags": {
                "addr:city": "Selargius",
                "addr:street": "Via Piero della Francesca"
            }
        },
        {
            "osm_id": 150263925,
            "poi_type": "shop",
            "poi_subtype": "mall",
            "lat": 39.2543936,
            "lon": 9.1497374,
            "name": "La Collina",
            "tags": {}
        },
        {
            "osm_id": 277186018,
            "poi_type": "shop",
            "poi_subtype": "mall",
            "lat": 39.2518105,
            "lon": 9.0925321,
            "name": "La Fornace",
            "tags": {}
        },
        {
            "osm_id": 28530212,
            "poi_type": "shop",
            "poi_subtype": "mall",
            "lat": 39.2451404,
            "lon": 9.1651975,
            "name": "Le Vele",
            "tags": {}
        },
        {
            "osm_id": 28530218,
            "poi_type": "shop",
            "poi_subtype": "mall",
            "lat": 39.2441054,
            "lon": 9.1662861,
            "name": "Le Vele",
            "tags": {
                "addr:city": "Quartu Sant'Elena",
                "addr:street": "Viale Guglielmo Marconi"
            }
        },
        {
            "osm_id": 277194397,
            "poi_type": "shop",
            "poi_subtype": "mall;supermarket",
            "lat": 39.24402,
            "lon": 9.1164387,
            "name": "Centro commerciale Conad;Conad Superstore",
            "tags": {
                "website": "https://www.conad.it/conad/it/home/chi-siamo/insegne/insegna-eleclerc.html",
                "addr:city": "Cagliari",
                "addr:postcode": "09121",
                "wheelchair": "yes",
                "parking": "rooftop",
                "addr:street": "Via Edward Jenner"
            }
        },
        {
            "osm_id": 4229618994,
            "poi_type": "shop",
            "poi_subtype": "medical_supply",
            "lat": 39.2184382,
            "lon": 9.1280708,
            "name": "Parafarmacia Araba Fenice",
            "tags": {
                "addr:city": "Cagliari",
                "addr:street": "Via Giovanni Battista Tuveri"
            }
        },
        {
            "osm_id": 4273939094,
            "poi_type": "shop",
            "poi_subtype": "medical_supply",
            "lat": 39.2392722,
            "lon": 9.1018015,
            "name": "Sitor",
            "tags": {
                "addr:city": "Casteddu/Cagliari",
                "addr:postcode": "09121",
                "wheelchair": "yes",
                "phone": "+39 070 288948",
                "toilets:wheelchair": "yes",
                "addr:street": "Via Mandrolisai"
            }
        },
        {
            "osm_id": 4562802951,
            "poi_type": "shop",
            "poi_subtype": "motorcycle",
            "lat": 39.2420237,
            "lon": 9.176404,
            "name": "Planet Motors",
            "tags": {
                "website": "https://www.planetmotors.it/",
                "addr:city": "Quartu Sant'Elena",
                "addr:postcode": "09045",
                "brand": "KTM",
                "description": "KTM dealer",
                "phone": "+39 70 881179",
                "opening_hours": "Mo-Fr 09:00-13:00,16:00-20:00 Sa 09:00-13:00 Su,PH off",
                "operator": "Planet Motors S.r.l.",
                "email": "planetmotors.ktm@gmail.com",
                "addr:street": "Via Guglielmo Marconi"
            }
        },
        {
            "osm_id": 6342073896,
            "poi_type": "shop",
            "poi_subtype": "newsagent",
            "lat": 39.2311807,
            "lon": 9.1225033,
            "name": "Edicola",
            "tags": {
                "addr:postcode": "09131",
                "addr:city": "Cagliari",
                "addr:street": "Via Giovanni Capula"
            }
        },
        {
            "osm_id": 6341069533,
            "poi_type": "shop",
            "poi_subtype": "newsagent",
            "lat": 39.2327289,
            "lon": 9.1260713,
            "name": "Edicola",
            "tags": {}
        },
        {
            "osm_id": 5673573435,
            "poi_type": "shop",
            "poi_subtype": "newsagent",
            "lat": 39.2699421,
            "lon": 9.0441937,
            "name": "Edicola Aurora",
            "tags": {
                "phone": "070 216414",
                "addr:postcode": "09030",
                "addr:city": "Elmas",
                "addr:street": "Via Sulcitana"
            }
        },
        {
            "osm_id": 238744075,
            "poi_type": "shop",
            "poi_subtype": "newsagent",
            "lat": 39.2325776,
            "lon": 9.1272738,
            "name": "Edicola  - Giornali e Riviste",
            "tags": {
                "addr:city": "Cagliari",
                "addr:street": "Via Giuseppe Biasi"
            }
        },
        {
            "osm_id": 5122501621,
            "poi_type": "shop",
            "poi_subtype": "newsagent",
            "lat": 39.2238207,
            "lon": 9.119989,
            "name": "L'Unione sarda",
            "tags": {}
        },
        {
            "osm_id": 5125908621,
            "poi_type": "shop",
            "poi_subtype": "newsagent",
            "lat": 39.2361797,
            "lon": 9.1077212,
            "name": "L'Unione sarda",
            "tags": {}
        },
        {
            "osm_id": 4748843522,
            "poi_type": "shop",
            "poi_subtype": "organic",
            "lat": 39.2181893,
            "lon": 9.1150557,
            "name": "S'Isula",
            "tags": {
                "wheelchair": "limited"
            }
        },
        {
            "osm_id": 1316613384,
            "poi_type": "shop",
            "poi_subtype": "pastry",
            "lat": 39.2422899,
            "lon": 9.1826885,
            "name": "Dolci Sardi Sorelle Piccioni",
            "tags": {}
        },
        {
            "osm_id": 281434438,
            "poi_type": "shop",
            "poi_subtype": "pastry",
            "lat": 39.2544522,
            "lon": 9.0713435,
            "name": "Dulcis",
            "tags": {
                "addr:postcode": "09030",
                "addr:city": "Elmas",
                "addr:street": "Via Bacco"
            }
        },
        {
            "osm_id": 3375228306,
            "poi_type": "shop",
            "poi_subtype": "pastry",
            "lat": 39.2181753,
            "lon": 9.1129987,
            "name": "La Foglia",
            "tags": {}
        },
        {
            "osm_id": 4177882889,
            "poi_type": "shop",
            "poi_subtype": "pastry",
            "lat": 39.2396187,
            "lon": 9.1743939,
            "name": "Marie Patisserie",
            "tags": {
                "addr:postcode": "09045",
                "addr:city": "Quartu Sant'Elena",
                "addr:street": "Via Pietro Mascagni"
            }
        },
        {
            "osm_id": 4479823986,
            "poi_type": "shop",
            "poi_subtype": "pastry",
            "lat": 39.270823,
            "lon": 9.0504149,
            "name": "Pasticceria Le Dolcezze di Sechi Francesco",
            "tags": {
                "addr:postcode": "09030",
                "addr:city": "Elmas",
                "addr:street": "Via del Pino Solitario"
            }
        },
        {
            "osm_id": 4274005392,
            "poi_type": "shop",
            "poi_subtype": "pet",
            "lat": 39.2185105,
            "lon": 9.1056758,
            "name": "Zoo market",
            "tags": {
                "addr:postcode": "09123",
                "wheelchair": "yes",
                "addr:city": "Casteddu/Cagliari",
                "addr:street": "Via Roma"
            }
        },
        {
            "osm_id": 5634322490,
            "poi_type": "shop",
            "poi_subtype": "shoes",
            "lat": 39.2154182,
            "lon": 9.1040092,
            "name": "Bata",
            "tags": {
                "toilets:wheelchair": "yes",
                "wheelchair": "yes",
                "addr:city": "Cagliari",
                "addr:street": "Viale La Plaia"
            }
        },
        {
            "osm_id": 4228955178,
            "poi_type": "shop",
            "poi_subtype": "shoes",
            "lat": 39.2174699,
            "lon": 9.1195516,
            "name": "Foot Locker",
            "tags": {
                "addr:city": "Cagliari",
                "addr:street": "Via Giuseppe Garibaldi"
            }
        },
        {
            "osm_id": 230009983,
            "poi_type": "shop",
            "poi_subtype": "shoes",
            "lat": 39.2359879,
            "lon": 9.1217759,
            "name": "Globo",
            "tags": {
                "addr:postcode": "09131",
                "addr:city": "Cagliari",
                "addr:street": "Via dei Valenzani"
            }
        },
        {
            "osm_id": 4910975903,
            "poi_type": "shop",
            "poi_subtype": "shoes",
            "lat": 39.2941579,
            "lon": 9.0679253,
            "name": "Pittarosso",
            "tags": {}
        },
        {
            "osm_id": 295595823,
            "poi_type": "shop",
            "poi_subtype": "shoes",
            "lat": 39.2871734,
            "lon": 9.081218,
            "name": "Wadel",
            "tags": {}
        },
        {
            "osm_id": 4229516256,
            "poi_type": "shop",
            "poi_subtype": "sports",
            "lat": 39.2161383,
            "lon": 9.1184918,
            "name": "Aw Lab",
            "tags": {
                "addr:city": "Cagliari",
                "addr:street": "Via Giuseppe Garibaldi"
            }
        },
        {
            "osm_id": 3375227843,
            "poi_type": "shop",
            "poi_subtype": "sports",
            "lat": 39.2251033,
            "lon": 9.1290373,
            "name": "BC",
            "tags": {
                "addr:postcode": "09131",
                "addr:city": "Cagliari",
                "addr:street": "Via Pietro Cavaro"
            }
        },
        {
            "osm_id": 4228916759,
            "poi_type": "shop",
            "poi_subtype": "sports",
            "lat": 39.2168425,
            "lon": 9.1191659,
            "name": "Bertola Skate",
            "tags": {
                "sport": "skateboard",
                "addr:city": "Cagliari",
                "addr:street": "Via Giuseppe Garibaldi"
            }
        },
        {
            "osm_id": 6952643112,
            "poi_type": "shop",
            "poi_subtype": "sports",
            "lat": 39.2533293,
            "lon": 9.059302,
            "name": "Cagliari 1920",
            "tags": {}
        },
        {
            "osm_id": 3375220440,
            "poi_type": "shop",
            "poi_subtype": "sports",
            "lat": 39.2300405,
            "lon": 9.1218351,
            "name": "Extreme Bike Shop",
            "tags": {
                "website": "http://www.extremebikes.it/",
                "addr:postcode": "09131",
                "addr:city": "Cagliari",
                "addr:street": "Via Giudice Chiano"
            }
        },
        {
            "osm_id": 3613145683,
            "poi_type": "shop",
            "poi_subtype": "sports",
            "lat": 39.2205314,
            "lon": 9.105637,
            "name": "Wipeout",
            "tags": {
                "website": "http://www.wipeout.it/",
                "phone": "+39 0703110547",
                "sport": "skateboardsurfkitesurfsnowboardsupwindsurf",
                "opening_hours": "Mo 17:00-20:30, Tu-Sa 10:00-13:30, 17:00-20:30",
                "addr:street": "Via Pola"
            }
        },
        {
            "osm_id": 4099950780,
            "poi_type": "shop",
            "poi_subtype": "stationery",
            "lat": 39.2159906,
            "lon": 9.1169846,
            "name": "Incaspisano",
            "tags": {
                "operator": "Incaspisano",
                "addr:city": "Casteddu/Cagliari",
                "addr:street": "Viale Regina Elena"
            }
        },
        {
            "osm_id": 4213812790,
            "poi_type": "shop",
            "poi_subtype": "supermarket",
            "lat": 39.2271236,
            "lon": 9.1268496,
            "name": "Amelia Pam",
            "tags": {
                "addr:city": "Cagliari",
                "addr:street": "Piazza Giovanni XXIII"
            }
        },
        {
            "osm_id": 3353932653,
            "poi_type": "shop",
            "poi_subtype": "supermarket",
            "lat": 39.2388956,
            "lon": 9.1108401,
            "name": "Amelia Pam",
            "tags": {
                "addr:city": "Cagliari",
                "addr:street": "Via Carlo Baudi di Vesme"
            }
        },
        {
            "osm_id": 4850820830,
            "poi_type": "shop",
            "poi_subtype": "supermarket",
            "lat": 39.2246565,
            "lon": 9.1287586,
            "name": "Amelia Pam",
            "tags": {
                "addr:city": "Cagliari",
                "addr:street": "Via San Benedetto"
            }
        },
        {
            "osm_id": 4213817313,
            "poi_type": "shop",
            "poi_subtype": "supermarket",
            "lat": 39.2361741,
            "lon": 9.2102825,
            "name": "Amelia Pam",
            "tags": {
                "addr:city": "Quartu Sant'Elena",
                "addr:street": "Via Italia"
            }
        },
        {
            "osm_id": 4471060125,
            "poi_type": "shop",
            "poi_subtype": "supermarket",
            "lat": 39.2460038,
            "lon": 9.1900187,
            "name": "Amelia Pam",
            "tags": {
                "addr:postcode": "09045",
                "wheelchair": "limited",
                "addr:city": "Quartu Sant'Elena",
                "addr:street": "Via Giovanni Cimabue"
            }
        },
        {
            "osm_id": 4213811246,
            "poi_type": "shop",
            "poi_subtype": "supermarket",
            "lat": 39.219276,
            "lon": 9.1075586,
            "name": "Amelia Pam",
            "tags": {
                "addr:city": "Cagliari",
                "addr:street": "Via Goffredo Mameli"
            }
        },
        {
            "osm_id": 4213808390,
            "poi_type": "shop",
            "poi_subtype": "supermarket",
            "lat": 39.2332469,
            "lon": 9.1023429,
            "name": "Amelia Pam",
            "tags": {
                "addr:city": "Cagliari",
                "addr:street": "Via Is Maglias"
            }
        },
        {
            "osm_id": 2144132323,
            "poi_type": "shop",
            "poi_subtype": "supermarket",
            "lat": 39.2326653,
            "lon": 9.1872768,
            "name": "Amelia Pam",
            "tags": {
                "wheelchair": "yes",
                "addr:city": "Quartu Sant'Elena",
                "addr:street": "Via Enrico Pessina"
            }
        },
        {
            "osm_id": 4471060124,
            "poi_type": "shop",
            "poi_subtype": "supermarket",
            "lat": 39.2382152,
            "lon": 9.1954114,
            "name": "Amelia Pam",
            "tags": {
                "addr:postcode": "09045",
                "addr:city": "Quartu Sant'Elena",
                "addr:street": "Via Fiume"
            }
        },
        {
            "osm_id": 4213814889,
            "poi_type": "shop",
            "poi_subtype": "supermarket",
            "lat": 39.2411014,
            "lon": 9.120084,
            "name": "Amelia Pam",
            "tags": {
                "wheelchair": "yes",
                "addr:city": "Pirri",
                "addr:street": "Via Santa Maria Chiara"
            }
        },
        {
            "osm_id": 4213453689,
            "poi_type": "shop",
            "poi_subtype": "supermarket",
            "lat": 39.232179,
            "lon": 9.091201,
            "name": "Auchan",
            "tags": {
                "addr:place": "Santa Gilla",
                "addr:city": "Cagliari",
                "addr:street": "Via San Simone"
            }
        },
        {
            "osm_id": 4213453789,
            "poi_type": "shop",
            "poi_subtype": "supermarket",
            "lat": 39.2475737,
            "lon": 9.1361551,
            "name": "Auchan",
            "tags": {
                "wheelchair": "yes",
                "addr:place": "Pirri",
                "addr:city": "Cagliari",
                "addr:street": "Via Dolianova"
            }
        },
        {
            "osm_id": 4213532192,
            "poi_type": "shop",
            "poi_subtype": "supermarket",
            "lat": 39.2439448,
            "lon": 9.165916,
            "name": "Carrefour",
            "tags": {
                "addr:street": "Viale Guglielmo Marconi"
            }
        },
        {
            "osm_id": 4229668731,
            "poi_type": "shop",
            "poi_subtype": "supermarket",
            "lat": 39.219931,
            "lon": 9.1038018,
            "name": "Commer+",
            "tags": {
                "addr:city": "Cagliari",
                "addr:street": "Viale Trieste"
            }
        },
        {
            "osm_id": 748769783,
            "poi_type": "shop",
            "poi_subtype": "supermarket",
            "lat": 39.2482113,
            "lon": 9.1190345,
            "name": "Conad",
            "tags": {
                "addr:city": "Cagliari",
                "addr:street": "Via Anassagora"
            }
        },
        {
            "osm_id": 1996956378,
            "poi_type": "shop",
            "poi_subtype": "supermarket",
            "lat": 39.209328,
            "lon": 9.1336041,
            "name": "Conad city",
            "tags": {
                "addr:city": "Cagliari",
                "addr:street": "Via dei Colombi"
            }
        },
        {
            "osm_id": 4213587392,
            "poi_type": "shop",
            "poi_subtype": "supermarket",
            "lat": 39.236088,
            "lon": 9.108515,
            "name": "Conad City",
            "tags": {
                "addr:city": "Cagliari",
                "addr:street": "Via Is Mirrionis"
            }
        },
        {
            "osm_id": 1996874394,
            "poi_type": "shop",
            "poi_subtype": "supermarket",
            "lat": 39.208259,
            "lon": 9.1382861,
            "name": "Conad City",
            "tags": {
                "addr:city": "Cagliari",
                "addr:street": "Via Louis Pasteur"
            }
        },
        {
            "osm_id": 4471060126,
            "poi_type": "shop",
            "poi_subtype": "supermarket",
            "lat": 39.2430171,
            "lon": 9.1810933,
            "name": "Conad City",
            "tags": {
                "addr:postcode": "09045",
                "wheelchair": "yes",
                "addr:city": "Quartu Sant'Elena",
                "addr:street": "Via Cagliari"
            }
        },
        {
            "osm_id": 1733464672,
            "poi_type": "shop",
            "poi_subtype": "supermarket",
            "lat": 39.2633202,
            "lon": 9.1351582,
            "name": "Conad City",
            "tags": {
                "wheelchair": "yes",
                "addr:city": "Monserrato",
                "addr:street": "Via Argentina"
            }
        },
        {
            "osm_id": -3685234,
            "poi_type": "shop",
            "poi_subtype": "supermarket",
            "lat": 39.2351141,
            "lon": 9.1213041,
            "name": "Conad Superstore",
            "tags": {
                "addr:city": "Cagliari",
                "addr:postcode": "09131",
                "wheelchair": "yes",
                "brand:wikidata": "Q639075",
                "operator": "CONAD",
                "brand:wikipedia": "it:Conad",
                "brand": "Conad",
                "addr:street": "Via dei Valenzani"
            }
        },
        {
            "osm_id": 4167721548,
            "poi_type": "shop",
            "poi_subtype": "supermarket",
            "lat": 39.2484799,
            "lon": 9.1949841,
            "name": "Conad Superstore",
            "tags": {
                "operator": "CONAD Soc. Coop.",
                "addr:city": "Quartu Sant'Elena",
                "addr:street": "Via Guglielmo Marconi"
            }
        },
        {
            "osm_id": 4229098870,
            "poi_type": "shop",
            "poi_subtype": "supermarket",
            "lat": 39.2186869,
            "lon": 9.1288218,
            "name": "Despar",
            "tags": {
                "operator": "Gieffe S.r.l.",
                "addr:city": "Cagliari",
                "addr:street": "Via Giovanni Battista Tuveri"
            }
        },
        {
            "osm_id": 5861146430,
            "poi_type": "shop",
            "poi_subtype": "supermarket",
            "lat": 39.2008193,
            "lon": 9.1426747,
            "name": "Despar",
            "tags": {}
        },
        {
            "osm_id": 189052020,
            "poi_type": "shop",
            "poi_subtype": "supermarket",
            "lat": 39.2467705,
            "lon": 9.0852324,
            "name": "EPSupercarni",
            "tags": {}
        },
        {
            "osm_id": 867589417,
            "poi_type": "shop",
            "poi_subtype": "supermarket",
            "lat": 39.2536708,
            "lon": 9.156415,
            "name": "Eurospin",
            "tags": {
                "website": "https://www.eurospin.it/",
                "opening_hours": "Mo-Sa 08:30-20:30 Su 08:30-13:30,16:00-20:00",
                "name:en": "EuroSpin"
            }
        },
        {
            "osm_id": 312971322,
            "poi_type": "shop",
            "poi_subtype": "supermarket",
            "lat": 39.2775078,
            "lon": 9.1794649,
            "name": "EuroSpin",
            "tags": {
                "opening_hours": "Mo-Sa 08:30-20:30 Su 08:30-13:30,16:30-20:00",
                "name:en": "EuroSpin"
            }
        },
        {
            "osm_id": 5412101521,
            "poi_type": "shop",
            "poi_subtype": "supermarket",
            "lat": 39.2474087,
            "lon": 9.1944623,
            "name": "EuroSpin",
            "tags": {
                "website": "https://www.eurospin.it/",
                "opening_hours": "Mo-Sa 08:30-20:30 Su 08:30-13:00",
                "name:en": "EuroSpin"
            }
        },
        {
            "osm_id": 206844793,
            "poi_type": "shop",
            "poi_subtype": "supermarket",
            "lat": 39.2500342,
            "lon": 9.1165947,
            "name": "EuroSpin",
            "tags": {
                "website": "https://www.eurospin.it/",
                "opening_hours": "Mo-Sa 08:30-21:00 Su 08:30-13:30,16:30-20:30",
                "name:en": "EuroSpin"
            }
        },
        {
            "osm_id": 5412363643,
            "poi_type": "shop",
            "poi_subtype": "supermarket",
            "lat": 39.2416578,
            "lon": 9.0917712,
            "name": "EuroSpin",
            "tags": {
                "website": "https://www.eurospin.it/",
                "opening_hours": "Mo-Sa 08:30-21:00 Su 08:30-13:30,16:30-20:00",
                "name:en": "EuroSpin"
            }
        },
        {
            "osm_id": 561272830,
            "poi_type": "shop",
            "poi_subtype": "supermarket",
            "lat": 39.2858522,
            "lon": 9.0811906,
            "name": "EuroSpin",
            "tags": {}
        },
        {
            "osm_id": 1996886287,
            "poi_type": "shop",
            "poi_subtype": "supermarket",
            "lat": 39.2356941,
            "lon": 9.1047543,
            "name": "Gieffe",
            "tags": {
                "addr:city": "Cagliari",
                "addr:street": "Via Timavo"
            }
        },
        {
            "osm_id": 4213453889,
            "poi_type": "shop",
            "poi_subtype": "supermarket",
            "lat": 39.2186135,
            "lon": 9.1287835,
            "name": "Gieffe",
            "tags": {
                "addr:city": "Cagliari",
                "addr:street": "Via Giovanni Battista Tuveri"
            }
        },
        {
            "osm_id": 2715451869,
            "poi_type": "shop",
            "poi_subtype": "supermarket",
            "lat": 39.2108935,
            "lon": 9.121061,
            "name": "Gieffe",
            "tags": {
                "operator": "Gieffe",
                "addr:city": "Cagliari",
                "addr:street": "Via Nuoro"
            }
        },
        {
            "osm_id": 4213395454,
            "poi_type": "shop",
            "poi_subtype": "supermarket",
            "lat": 39.201503,
            "lon": 9.1601009,
            "name": "Gieffe",
            "tags": {
                "wheelchair": "yes",
                "addr:city": "Cagliari",
                "addr:street": "Via Ischia"
            }
        },
        {
            "osm_id": 4475562285,
            "poi_type": "shop",
            "poi_subtype": "supermarket",
            "lat": 39.2934421,
            "lon": 9.0864424,
            "name": "Gieffe",
            "tags": {
                "addr:postcode": "09028",
                "addr:city": "Sestu",
                "addr:street": "Via Costituzione"
            }
        },
        {
            "osm_id": 4213453690,
            "poi_type": "shop",
            "poi_subtype": "supermarket",
            "lat": 39.2188595,
            "lon": 9.1251432,
            "name": "Gieffe",
            "tags": {
                "addr:city": "Cagliari",
                "addr:street": "Via Dante Alighieri"
            }
        },
        {
            "osm_id": 4229659407,
            "poi_type": "shop",
            "poi_subtype": "supermarket",
            "lat": 39.2226886,
            "lon": 9.1252588,
            "name": "Gieffe",
            "tags": {
                "operator": "Gieffe S.r.l.",
                "phone": "+39 070 53260670",
                "addr:city": "Cagliari",
                "addr:street": "Via Dante Alighieri"
            }
        },
        {
            "osm_id": 1237293518,
            "poi_type": "shop",
            "poi_subtype": "supermarket",
            "lat": 39.2408967,
            "lon": 9.203928,
            "name": "Gieffe",
            "tags": {
                "phone": "+39 070 53260420",
                "addr:city": "Quartu Sant'Elena",
                "addr:street": "Via Pitz'e Serra"
            }
        },
        {
            "osm_id": 4213454089,
            "poi_type": "shop",
            "poi_subtype": "supermarket",
            "lat": 39.2454802,
            "lon": 9.1310068,
            "name": "Gieffe",
            "tags": {
                "addr:place": "Pirri",
                "addr:city": "Cagliari",
                "addr:street": "Via della Resistenza"
            }
        },
        {
            "osm_id": 4213412993,
            "poi_type": "shop",
            "poi_subtype": "supermarket",
            "lat": 39.2228061,
            "lon": 9.128452,
            "name": "Gieffe",
            "tags": {
                "addr:city": "Cagliari",
                "addr:street": "Via Arcangelo Corelli"
            }
        },
        {
            "osm_id": 4213401091,
            "poi_type": "shop",
            "poi_subtype": "supermarket",
            "lat": 39.236694,
            "lon": 9.1335775,
            "name": "Gieffe",
            "tags": {
                "addr:city": "Cagliari",
                "addr:street": "Via Talete"
            }
        },
        {
            "osm_id": 4213412890,
            "poi_type": "shop",
            "poi_subtype": "supermarket",
            "lat": 39.2579716,
            "lon": 9.1030614,
            "name": "Gieffe",
            "tags": {
                "addr:place": "Su Planu",
                "addr:city": "Selargius",
                "addr:street": "Via Monte Gran San Bernardo"
            }
        },
        {
            "osm_id": 1212993846,
            "poi_type": "shop",
            "poi_subtype": "supermarket",
            "lat": 39.2237531,
            "lon": 9.1367063,
            "name": "Gieffe",
            "tags": {
                "addr:city": "Cagliari",
                "addr:street": "Via Berlino"
            }
        },
        {
            "osm_id": 4213412992,
            "poi_type": "shop",
            "poi_subtype": "supermarket",
            "lat": 39.1991707,
            "lon": 9.1391826,
            "name": "Gieffe",
            "tags": {
                "addr:place": "San Bartolomeo",
                "addr:city": "Cagliari",
                "addr:street": "Via Francesco Alziator"
            }
        },
        {
            "osm_id": 867589357,
            "poi_type": "shop",
            "poi_subtype": "supermarket",
            "lat": 39.2631578,
            "lon": 9.1705396,
            "name": "Hard dis discount",
            "tags": {}
        },
        {
            "osm_id": 2725373298,
            "poi_type": "shop",
            "poi_subtype": "supermarket",
            "lat": 39.2146999,
            "lon": 9.1128405,
            "name": "Il Suq",
            "tags": {
                "website": "http://www.ilsuq.it",
                "addr:city": "Cagliari",
                "wheelchair": "no",
                "phone": "+39 070 660223",
                "operator": "Il Suq srl unipersonale",
                "addr:street": "Via Napoli"
            }
        },
        {
            "osm_id": 4213523292,
            "poi_type": "shop",
            "poi_subtype": "supermarket",
            "lat": 39.2343294,
            "lon": 9.1390288,
            "name": "Iper Pan",
            "tags": {
                "addr:city": "Cagliari",
                "addr:street": "Viale Guglielmo Marconi"
            }
        },
        {
            "osm_id": 2001275541,
            "poi_type": "shop",
            "poi_subtype": "supermarket",
            "lat": 39.2153479,
            "lon": 9.1038794,
            "name": "Iper Pan",
            "tags": {
                "wheelchair": "yes",
                "addr:city": "Cagliari",
                "addr:street": "Viale La Plaia"
            }
        },
        {
            "osm_id": 223988453,
            "poi_type": "shop",
            "poi_subtype": "supermarket",
            "lat": 39.2783049,
            "lon": 9.078086,
            "name": "Iper Pan",
            "tags": {}
        },
        {
            "osm_id": 765901948,
            "poi_type": "shop",
            "poi_subtype": "supermarket",
            "lat": 39.2431766,
            "lon": 9.1951566,
            "name": "Iper Pan / HarDis",
            "tags": {
                "addr:city": "Quartu Sant'Elena",
                "addr:street": "Via Monsignor Virgilio Angioni"
            }
        },
        {
            "osm_id": 1232446626,
            "poi_type": "shop",
            "poi_subtype": "supermarket",
            "lat": 39.2410993,
            "lon": 9.1896453,
            "name": "Lello",
            "tags": {}
        },
        {
            "osm_id": 281433283,
            "poi_type": "shop",
            "poi_subtype": "supermarket",
            "lat": 39.2714121,
            "lon": 9.0395721,
            "name": "Lidl",
            "tags": {
                "addr:city": "Elmas",
                "addr:postcode": "09030",
                "brand": "Lidl",
                "brand:wikidata": "Q151954",
                "addr:street": "Via Sulcitana",
                "brand:wikipedia": "en:Lidl"
            }
        },
        {
            "osm_id": 4099999704,
            "poi_type": "shop",
            "poi_subtype": "supermarket",
            "lat": 39.2347911,
            "lon": 9.1396869,
            "name": "Lidl",
            "tags": {}
        },
        {
            "osm_id": 4229666623,
            "poi_type": "shop",
            "poi_subtype": "supermarket",
            "lat": 39.2164979,
            "lon": 9.1219786,
            "name": "Margherita",
            "tags": {
                "operator": "Conad",
                "phone": "+39 070 670665",
                "addr:city": "Cagliari",
                "addr:street": "Via Sebastiano Satta"
            }
        },
        {
            "osm_id": 2833196637,
            "poi_type": "shop",
            "poi_subtype": "supermarket",
            "lat": 39.2056131,
            "lon": 9.1358399,
            "name": "Margherita conad",
            "tags": {
                "addr:city": "Cagliari",
                "addr:street": "Via della Pineta"
            }
        },
        {
            "osm_id": 4471060129,
            "poi_type": "shop",
            "poi_subtype": "supermarket",
            "lat": 39.2379734,
            "lon": 9.1802032,
            "name": "Market Gieffe",
            "tags": {
                "addr:postcode": "09045",
                "wheelchair": "yes",
                "addr:city": "Quartu Sant'Elena",
                "addr:street": "Via Giuseppe Parini"
            }
        },
        {
            "osm_id": 1162723231,
            "poi_type": "shop",
            "poi_subtype": "supermarket",
            "lat": 39.2532941,
            "lon": 9.1710714,
            "name": "Market marisa palmas",
            "tags": {}
        },
        {
            "osm_id": 277834843,
            "poi_type": "shop",
            "poi_subtype": "supermarket",
            "lat": 39.2664982,
            "lon": 9.133208,
            "name": "Maxi Sidis",
            "tags": {
                "addr:city": "Monserrato"
            }
        },
        {
            "osm_id": 6837170787,
            "poi_type": "shop",
            "poi_subtype": "supermarket",
            "lat": 39.25971,
            "lon": 9.186742,
            "name": "MD",
            "tags": {
                "brand": "MD",
                "brand:wikidata": "Q3841263",
                "brand:wikipedia": "en:MD Discount"
            }
        },
        {
            "osm_id": 6106802661,
            "poi_type": "shop",
            "poi_subtype": "supermarket",
            "lat": 39.2345391,
            "lon": 9.1114441,
            "name": "MD",
            "tags": {
                "operator": "MD",
                "addr:city": "Cagliari",
                "addr:street": "Via Diego Cadello"
            }
        },
        {
            "osm_id": 281434974,
            "poi_type": "shop",
            "poi_subtype": "supermarket",
            "lat": 39.257237,
            "lon": 9.0706437,
            "name": "Metro",
            "tags": {
                "wikipedia": "it:Metro (azienda)",
                "addr:postcode": "09030",
                "wikidata": "Q169167",
                "addr:city": "Elmas",
                "addr:street": "Via A. Omodeo"
            }
        },
        {
            "osm_id": 1162723293,
            "poi_type": "shop",
            "poi_subtype": "supermarket",
            "lat": 39.2553253,
            "lon": 9.169158,
            "name": "Nonna isa",
            "tags": {}
        },
        {
            "osm_id": 4229609947,
            "poi_type": "shop",
            "poi_subtype": "supermarket",
            "lat": 39.2129812,
            "lon": 9.1194222,
            "name": "Nonna Isa",
            "tags": {
                "operator": "Camporosso srl",
                "phone": "+39 070 670167",
                "addr:city": "Cagliari",
                "addr:street": "Via Sidney Sonnino"
            }
        },
        {
            "osm_id": 400201640,
            "poi_type": "shop",
            "poi_subtype": "supermarket",
            "lat": 39.2127825,
            "lon": 9.1196675,
            "name": "Nonna Isa",
            "tags": {
                "operator": "Camporosso SRL"
            }
        },
        {
            "osm_id": 4215591593,
            "poi_type": "shop",
            "poi_subtype": "supermarket",
            "lat": 39.2365722,
            "lon": 9.0998948,
            "name": "Nonna Isa",
            "tags": {
                "addr:city": "Cagliari",
                "addr:street": "Via Is Maglias"
            }
        },
        {
            "osm_id": 5635362206,
            "poi_type": "shop",
            "poi_subtype": "supermarket",
            "lat": 39.2938238,
            "lon": 9.0871732,
            "name": "Nonna Isa",
            "tags": {
                "website": "https://www.gruppovege.it",
                "addr:postcode": "09028",
                "addr:city": "Sestu",
                "addr:street": "Via Cagliari"
            }
        },
        {
            "osm_id": 1698382508,
            "poi_type": "shop",
            "poi_subtype": "supermarket",
            "lat": 39.2471705,
            "lon": 9.1303889,
            "name": "Nonna Isa",
            "tags": {
                "addr:place": "Pirri",
                "addr:city": "Cagliari",
                "addr:street": "Via Italia"
            }
        },
        {
            "osm_id": 4215591594,
            "poi_type": "shop",
            "poi_subtype": "supermarket",
            "lat": 39.242454,
            "lon": 9.0905094,
            "name": "Nonna Isa",
            "tags": {
                "addr:city": "Cagliari",
                "addr:street": "Viale Elmas"
            }
        },
        {
            "osm_id": 4213559889,
            "poi_type": "shop",
            "poi_subtype": "supermarket",
            "lat": 39.2661804,
            "lon": 9.049902,
            "name": "Nonna Isa",
            "tags": {
                "addr:city": "Elmas",
                "addr:street": "Via dell'Arma Azzurra"
            }
        },
        {
            "osm_id": 4229510738,
            "poi_type": "shop",
            "poi_subtype": "supermarket",
            "lat": 39.2292599,
            "lon": 9.12095,
            "name": "Nonna ISA",
            "tags": {
                "website": "https://www.gruppovege.it",
                "addr:postcode": "09131",
                "addr:city": "Cagliari",
                "addr:street": "Via Giudice Guglielmo"
            }
        },
        {
            "osm_id": 4215114791,
            "poi_type": "shop",
            "poi_subtype": "supermarket",
            "lat": 39.2543902,
            "lon": 9.1495761,
            "name": "Simply Market",
            "tags": {
                "addr:city": "Monserrato",
                "addr:street": "Via Monte Arci"
            }
        },
        {
            "osm_id": 4229674494,
            "poi_type": "shop",
            "poi_subtype": "supermarket",
            "lat": 39.2190368,
            "lon": 9.1289825,
            "name": "Supermercato Gruppo Isa",
            "tags": {
                "operator": "Gruppo Isa",
                "addr:street": "Via Giovanni Battista Tuveri",
                "name:it": "Supermercato Gruppo ISA",
                "addr:city": "Cagliari"
            }
        },
        {
            "osm_id": 4213505890,
            "poi_type": "shop",
            "poi_subtype": "supermarket",
            "lat": 39.2265762,
            "lon": 9.0992241,
            "name": "Super Pan",
            "tags": {
                "wheelchair": "yes",
                "addr:city": "Cagliari",
                "addr:street": "Via Santa Gilla"
            }
        },
        {
            "osm_id": 4213496990,
            "poi_type": "shop",
            "poi_subtype": "supermarket",
            "lat": 39.2422079,
            "lon": 9.1068942,
            "name": "Super Pan",
            "tags": {
                "addr:city": "Cagliari",
                "addr:street": "Via Giovanni Cinquini"
            }
        },
        {
            "osm_id": 4471098300,
            "poi_type": "shop",
            "poi_subtype": "supermarket",
            "lat": 39.2420183,
            "lon": 9.1813005,
            "name": "Super Pan",
            "tags": {
                "addr:postcode": "09045",
                "wheelchair": "yes",
                "addr:city": "Quartu Sant'Elena",
                "addr:street": "Via Guglielmo Marconi"
            }
        },
        {
            "osm_id": 4213523193,
            "poi_type": "shop",
            "poi_subtype": "supermarket",
            "lat": 39.2591835,
            "lon": 9.1765691,
            "name": "Super Pan",
            "tags": {
                "addr:city": "Selargius",
                "addr:street": "Via San Nicol\u00f2"
            }
        },
        {
            "osm_id": 4213455202,
            "poi_type": "shop",
            "poi_subtype": "supermarket",
            "lat": 39.2259885,
            "lon": 9.1239815,
            "name": "Super Pan",
            "tags": {
                "contact:phone": "070 49 38 60",
                "addr:city": "Cagliari",
                "addr:street": "Via Sant'Alenixedda"
            }
        },
        {
            "osm_id": 4213506592,
            "poi_type": "shop",
            "poi_subtype": "supermarket",
            "lat": 39.2531377,
            "lon": 9.1034259,
            "name": "Super Pan",
            "tags": {
                "addr:city": "Selargius",
                "addr:street": "Via Piero della Francesca"
            }
        },
        {
            "osm_id": 4213506591,
            "poi_type": "shop",
            "poi_subtype": "supermarket",
            "lat": 39.2385129,
            "lon": 9.1224894,
            "name": "Super Pan",
            "tags": {
                "addr:city": "Cagliari",
                "addr:street": "Via Calamattia"
            }
        },
        {
            "osm_id": 1684957158,
            "poi_type": "shop",
            "poi_subtype": "supermarket",
            "lat": 39.1975799,
            "lon": 9.1518398,
            "name": "Super Pan",
            "tags": {
                "addr:city": "Cagliari",
                "addr:street": "Via del Pozzetto"
            }
        },
        {
            "osm_id": 867589427,
            "poi_type": "shop",
            "poi_subtype": "supermarket",
            "lat": 39.2556065,
            "lon": 9.1567959,
            "name": "Super Pan",
            "tags": {
                "addr:city": "Selargius",
                "addr:street": "Via della Libert\u00e0"
            }
        },
        {
            "osm_id": 421601745,
            "poi_type": "shop",
            "poi_subtype": "supermarket",
            "lat": 39.2353475,
            "lon": 9.205095,
            "name": "Super Pan",
            "tags": {
                "addr:city": "Quartu Sant'Elena",
                "addr:street": "Via Fiume"
            }
        },
        {
            "osm_id": 4213506590,
            "poi_type": "shop",
            "poi_subtype": "supermarket",
            "lat": 39.2317746,
            "lon": 9.126002,
            "name": "Super Pan",
            "tags": {
                "addr:city": "Cagliari",
                "addr:street": "Via Filippo Figari"
            }
        },
        {
            "osm_id": 4213506689,
            "poi_type": "shop",
            "poi_subtype": "supermarket",
            "lat": 39.2304967,
            "lon": 9.1300295,
            "name": "Super Pan",
            "tags": {
                "addr:city": "Cagliari",
                "addr:street": "Via Baldassarre Castiglione"
            }
        },
        {
            "osm_id": 4475580967,
            "poi_type": "shop",
            "poi_subtype": "supermarket",
            "lat": 39.3013401,
            "lon": 9.0935288,
            "name": "Usai Isa",
            "tags": {
                "addr:postcode": "09028",
                "addr:city": "Sestu",
                "addr:street": "Via Gorizia"
            }
        },
        {
            "osm_id": 4475580965,
            "poi_type": "shop",
            "poi_subtype": "supermarket",
            "lat": 39.2917811,
            "lon": 9.0956199,
            "name": "Usai Isa",
            "tags": {
                "addr:postcode": "09028",
                "addr:city": "Sestu",
                "addr:street": "Via Monserrato"
            }
        },
        {
            "osm_id": 4475580966,
            "poi_type": "shop",
            "poi_subtype": "supermarket",
            "lat": 39.2969739,
            "lon": 9.0942665,
            "name": "Usai Isa",
            "tags": {
                "addr:postcode": "09028",
                "addr:city": "Sestu",
                "addr:street": "Via Monserrato"
            }
        },
        {
            "osm_id": 2201765732,
            "poi_type": "shop",
            "poi_subtype": "supermarket",
            "lat": 39.2936047,
            "lon": 9.06689,
            "name": "Zona market",
            "tags": {}
        },
        {
            "osm_id": 4229518670,
            "poi_type": "shop",
            "poi_subtype": "ticket",
            "lat": 39.2137558,
            "lon": 9.1165377,
            "name": "Box Office Tickets Sardegna",
            "tags": {
                "website": "http://www.boxofficesardegna.it/",
                "addr:city": "Cagliari",
                "opening_hours": "Mo-Fr 10:00-13:00,17:00-20:00 Sa 10:00-13:00",
                "phone": "+39 070 657428",
                "facebook": "https://www.facebook.com/boxofficecagliari.sardegna/",
                "email": "info@boxofficesardegna.it",
                "addr:street": "Viale Regina Margherita"
            }
        },
        {
            "osm_id": 277184756,
            "poi_type": "shop",
            "poi_subtype": "ticket",
            "lat": 39.2151287,
            "lon": 9.109893,
            "name": "CTM point",
            "tags": {
                "website": "http://www.ctmcagliari.it/",
                "operator": "CTM Cagliari"
            }
        },
        {
            "osm_id": 2607645591,
            "poi_type": "shop",
            "poi_subtype": "tobacco",
            "lat": 39.2327453,
            "lon": 9.1260833,
            "name": "Tabacchi",
            "tags": {
                "addr:postcode": "09131",
                "addr:city": "Cagliari",
                "addr:street": "Via Giuseppe Biasi"
            }
        },
        {
            "osm_id": 6354826190,
            "poi_type": "shop",
            "poi_subtype": "tobacco",
            "lat": 39.2286738,
            "lon": 9.1247047,
            "name": "Tabacchi n. 111",
            "tags": {
                "addr:city": "Cagliari",
                "addr:street": "Via dei Giudicati"
            }
        },
        {
            "osm_id": 5995832086,
            "poi_type": "shop",
            "poi_subtype": "toys",
            "lat": 39.2165759,
            "lon": 9.1194083,
            "name": "Cita' del Sole",
            "tags": {}
        },
        {
            "osm_id": 277193073,
            "poi_type": "shop",
            "poi_subtype": "trade",
            "lat": 39.2350182,
            "lon": 9.123525,
            "name": "Centro Edilizia Pau Esposizione",
            "tags": {
                "addr:city": "Cagliari",
                "building:levels": "1",
                "addr:postcode": "09131",
                "height": "4",
                "trade": "building_materials",
                "addr:street": "Viale Francesco Ciusa"
            }
        },
        {
            "osm_id": 4228908282,
            "poi_type": "shop",
            "poi_subtype": "travel_agency",
            "lat": 39.2192472,
            "lon": 9.129284,
            "name": "Medisard",
            "tags": {
                "operator": "Giramondo",
                "addr:city": "Cagliari",
                "addr:street": "Via Giovanni Battista Tuveri"
            }
        },
        {
            "osm_id": 277184085,
            "poi_type": "shop",
            "poi_subtype": "tyres",
            "lat": 39.2497171,
            "lon": 9.0956596,
            "name": "Matta Gomme",
            "tags": {
                "website": "http://mattagomme.com/",
                "phone": "+39.070 271286 +39.070 285220",
                "brand": "Multimarche",
                "email": "info@mattagomme.com",
                "opening_hours": "Mo-Fr 08:30-20:00 Sa 08:30-12:30"
            }
        },
        {
            "osm_id": 2723506902,
            "poi_type": "shop",
            "poi_subtype": "winery",
            "lat": 39.2112646,
            "lon": 9.1175942,
            "name": "Cronta",
            "tags": {
                "addr:city": "Cagliari",
                "addr:street": "Viale Armando Diaz"
            }
        },
        {
            "osm_id": 3350225707,
            "poi_type": "shop",
            "poi_subtype": "yes",
            "lat": 39.2165229,
            "lon": 9.1199171,
            "name": "Bottega del Mondo Ass. Oscar Romero",
            "tags": {
                "website": "http://www.orequo.it/",
                "addr:city": "Cagliari",
                "addr:street": "Via Luigi Einaudi"
            }
        },
        {
            "osm_id": 295594816,
            "poi_type": "shop",
            "poi_subtype": "yes",
            "lat": 39.2925272,
            "lon": 9.0688768,
            "name": "Shangai Group",
            "tags": {}
        },
        {
            "osm_id": 223519550,
            "poi_type": "tourism",
            "poi_subtype": "museum",
            "lat": 39.2564471,
            "lon": 9.1695728,
            "name": "Carcere Aragonese",
            "tags": {}
        },
        {
            "osm_id": 205692044,
            "poi_type": "tourism",
            "poi_subtype": "museum",
            "lat": 39.3011912,
            "lon": 9.0894308,
            "name": "Casa Ofelia",
            "tags": {}
        },
        {
            "osm_id": 265944411,
            "poi_type": "tourism",
            "poi_subtype": "museum",
            "lat": 39.2144937,
            "lon": 9.1204391,
            "name": "ExM\u00e0",
            "tags": {
                "wikipedia": "it:ExM\u00e0",
                "wikidata": "Q3735781",
                "addr:city": "Cagliari",
                "addr:street": "Via San Lucifero"
            }
        },
        {
            "osm_id": 277187623,
            "poi_type": "tourism",
            "poi_subtype": "museum",
            "lat": 39.2260063,
            "lon": 9.1158656,
            "name": "Galleria Comunale d'Arte",
            "tags": {
                "website": "http://www.museicivicicagliari.it/it/musei-civici/galleria-comunale-d-arte",
                "wikipedia": "it:Galleria comunale d'arte di Cagliari",
                "wikidata": "Q3757711"
            }
        },
        {
            "osm_id": 277186993,
            "poi_type": "tourism",
            "poi_subtype": "museum",
            "lat": 39.2204168,
            "lon": 9.114791,
            "name": "Ghetto degli Ebrei",
            "tags": {
                "fee": "no",
                "opening_hours": "Tu-Su 10:00-21:00",
                "wheelchair": "no",
                "wikipedia": "it:Ghetto degli ebrei",
                "phone": "+39 070 6670190",
                "wikidata": "Q3761649",
                "addr:street": "Via Santa Croce"
            }
        },
        {
            "osm_id": 4614528251,
            "poi_type": "tourism",
            "poi_subtype": "museum",
            "lat": 39.2223831,
            "lon": 9.1166362,
            "name": "Museo Archeologico Nazionale di Cagliari",
            "tags": {
                "name:en": "National Archaeological Museum of Cagliari",
                "addr:city": "Cagliari",
                "addr:postcode": "09124",
                "wikidata": "Q1151133",
                "name:it": "Museo Archeologico Nazionale di Cagliari",
                "opening_hours": "09:00-20:00",
                "name:ru": "\u041d\u0430\u0446\u0438\u043e\u043d\u0430\u043b\u044c\u043d\u044b\u0439 \u0430\u0440\u0445\u0435\u043e\u043b\u043e\u0433\u0438\u0447\u0435\u0441\u043a\u0438\u0439 \u043c\u0443\u0437\u0435\u0439 \u041a\u0430\u043b\u044c\u044f\u0440\u0438",
                "name:es": "Museo Arqueol\u00f3gico Nacional de Cagliari",
                "addr:street": "Piazza Arsenale"
            }
        },
        {
            "osm_id": 4592425128,
            "poi_type": "tourism",
            "poi_subtype": "museum",
            "lat": 39.2228063,
            "lon": 9.1173504,
            "name": "Museo civico d'arte siamese Stefano Cardu",
            "tags": {
                "wikipedia": "it:Museo civico d'arte siamese Stefano Cardu",
                "wikidata": "Q3867803"
            }
        },
        {
            "osm_id": 3319949938,
            "poi_type": "tourism",
            "poi_subtype": "museum",
            "lat": 39.216249,
            "lon": 9.1312832,
            "name": "Museo dell'arciconfraternita dei Genovesi",
            "tags": {
                "wikipedia": "it:Museo dell'arciconfraternita dei Genovesi",
                "wikidata": "Q3868009"
            }
        },
        {
            "osm_id": 4449216135,
            "poi_type": "tourism",
            "poi_subtype": "museum",
            "lat": 39.2220506,
            "lon": 9.1170913,
            "name": "Museo delle cere anatomiche Clemente Susini",
            "tags": {
                "wikipedia": "it:Museo delle cere anatomiche Clemente Susini",
                "contact:website": "http://pacs.unica.it/cere/",
                "wikidata": "Q3868140",
                "opening_hours": "Tu-Su 09:00-13:00,16:00-19:00"
            }
        },
        {
            "osm_id": 380271999,
            "poi_type": "tourism",
            "poi_subtype": "museum",
            "lat": 39.2642189,
            "lon": 9.1431326,
            "name": "Museo delle ferrovie della Sardegna",
            "tags": {
                "wikipedia": "it:Museo delle ferrovie della Sardegna",
                "wikidata": "Q3868142"
            }
        },
        {
            "osm_id": 3319949939,
            "poi_type": "tourism",
            "poi_subtype": "museum",
            "lat": 39.2086163,
            "lon": 9.1252652,
            "name": "Museo di Bonaria",
            "tags": {
                "wikipedia": "it:Museo di Bonaria",
                "contact:website": "http://www.bonaria.eu/storia-di-bonaria/museo/museo/",
                "wikidata": "Q3868165"
            }
        },
        {
            "osm_id": 4449256155,
            "poi_type": "tourism",
            "poi_subtype": "museum",
            "lat": 39.2184081,
            "lon": 9.1168725,
            "name": "Museo Diocesano",
            "tags": {}
        },
        {
            "osm_id": 4366976717,
            "poi_type": "tourism",
            "poi_subtype": "museum",
            "lat": 39.2229168,
            "lon": 9.1166402,
            "name": "Museo Etnografico Regionale - Collezione Cocco",
            "tags": {
                "website": "http://www.isresardegna.it",
                "fee": "no",
                "addr:city": "Cagliari",
                "addr:postcode": "09124",
                "wikipedia": "it:Museo sardo di antropologia ed etnografia",
                "phone": "+39 346 9724935",
                "wikidata": "Q17636861",
                "opening_hours": "Tu-Su 09:00-20:00",
                "operator": "ISRE - Istituto Superiore Etnografico della Sardegna",
                "addr:street": "Piazza Arsenale",
                "phone_1": "+39 0784 242900"
            }
        },
        {
            "osm_id": 221999272,
            "poi_type": "tourism",
            "poi_subtype": "museum",
            "lat": 39.2154151,
            "lon": 9.1082807,
            "name": "Museo Ferroviario Sardo",
            "tags": {
                "wikipedia": "it:Museo delle Ferrovie dello Stato",
                "wheelchair": "yes",
                "wikidata": "Q3868122",
                "toilets:wheelchair": "yes"
            }
        },
        {
            "osm_id": 1670392027,
            "poi_type": "tourism",
            "poi_subtype": "museum",
            "lat": 39.2145776,
            "lon": 9.1146284,
            "name": "Museo Sant'Eulalia",
            "tags": {
                "contact:email": "info@mutseu.org",
                "opening_hours": "Nov 01-Mar 21 09:30-16:00 Mar 22-Oct 31 10:00-13:00,16:00-19:00",
                "contact:website": "http://www.mutseu.org",
                "contact:phone": "+39 391 46 94 189",
                "wikipedia": "it:Museo del tesoro di Sant'Eulalia",
                "wikidata": "Q3867981"
            }
        },
        {
            "osm_id": 3818550014,
            "poi_type": "tourism",
            "poi_subtype": "museum",
            "lat": 39.2707095,
            "lon": 9.1238237,
            "name": "Museo sardo di Antropologia ed Etnografia",
            "tags": {}
        },
        {
            "osm_id": 5104812757,
            "poi_type": "tourism",
            "poi_subtype": "museum",
            "lat": 39.2186311,
            "lon": 9.1165683,
            "name": "Palazzo di Citt\u00e0",
            "tags": {
                "website": "https://www.museicivicicagliari.it/en/scheda-antico-palazzo-di-citta",
                "addr:street": "Piazza Palazzo"
            }
        },
        {
            "osm_id": 330831716,
            "poi_type": "tourism",
            "poi_subtype": "museum",
            "lat": 39.2163793,
            "lon": 9.1167341,
            "name": "Passeggiata Coperta Bastione di Saint Remy",
            "tags": {
                "lit": "yes",
                "area": "yes"
            }
        },
        {
            "osm_id": 4592425127,
            "poi_type": "tourism",
            "poi_subtype": "museum",
            "lat": 39.2228594,
            "lon": 9.1169403,
            "name": "Pinacoteca Nazionale",
            "tags": {
                "website": "http://musei.sardegna.beniculturali.it/musei/pinacoteca-nazionale-di-cagliari/",
                "contact:facebook": "https://www.facebook.com/PINACOTECA-NAZIONALE-CAGLIARI-128812843828111/",
                "opening_hours": "Tu-Su 09:00-20:00",
                "contact:website": "http://www.pinacoteca.cagliari.beniculturali.it/",
                "wikipedia": "it:Pinacoteca nazionale (Cagliari)",
                "phone": "+39 070 662496",
                "wikidata": "Q3905131",
                "contact:twitter": "@PinacotecaCA",
                "email": "pm-sar.pinacoteca.cagliari@beniculturali.it"
            }
        },
        {
            "osm_id": 5079326820,
            "poi_type": "tourism",
            "poi_subtype": "museum",
            "lat": 39.2238165,
            "lon": 9.0244765,
            "name": "Saline Conti Vecchi",
            "tags": {
                "website": "http://www.visitfai.it/salinecontivecchi/",
                "addr:unit": "Zona industriale Macchiareddu",
                "addr:city": "Assemini",
                "opening_hours:url": "http://www.visitfai.it/salinecontivecchi/la-tua-visita/info-e-orari",
                "addr:postcode": "09032",
                "phone": "070 247032",
                "opening_hours": "May 27-Jun 16: 10:00-18:00 Jun 17-Sep 3: 09:00-12:30,16:30-20:30 Sep 4-Oct 31: 10:00-18:00 Nov 1-Jan 7: 10:00-17:00 Dec 24-26,Jan 1 off Jan 8- Feb 28: \\on appointment\\",
                "operator": "Fondo Ambiente Italiano",
                "email": "faisaline@fondoambiente.it"
            }
        }
    ]
}